Name,State,Phone Number,Location,Full Address,Opening hours,Pin,"Name, State,Pin"
McDonald's,Texas City,"<a href=""tel:+1 409-948-4512"" rel=""nofollow"">+1 409-948-4512</a>","<a href=""https://www.google.com/maps?cid=8071226625105283502"" target=""_blank"" rel=""nofollow"">Get Directions</a>","3545 Palmer Hwy, Texas City, TX 77590",Fri : 5am-12am <br> Sat : 5am-12am <br> Sun : 5am-12am <br> Mon : 5am-12am <br> Tue : 5am-12am <br> Wed : 5am-12am <br> Thu : 5am-12am,TX 77590,"McDonald's, Texas City, TX 77590"
McDonald's,Bridge City,"<a href=""tel:+1 409-735-7503"" rel=""nofollow"">+1 409-735-7503</a>","<a href=""https://www.google.com/maps?cid=2250042330649372276"" target=""_blank"" rel=""nofollow"">Get Directions</a>","755 Texas Ave, Bridge City, TX 77611",Fri : 5am-12am <br> Sat : 5am-12am <br> Sun : 5am-12am <br> Mon : 5am-12am <br> Tue : 5am-12am <br> Wed : 5am-12am <br> Thu : 5am-12am,TX 77611,"McDonald's, Bridge City, TX 77611"
McDonald's,College Station,"<a href=""tel:+1 979-696-9346"" rel=""nofollow"">+1 979-696-9346</a>","<a href=""https://www.google.com/maps?cid=9549161180730009603"" target=""_blank"" rel=""nofollow"">Get Directions</a>","2420 Texas Ave, College Station, TX 77840",Fri : open 24 hours <br> Sat : open 24 hours <br> Sun : open 24 hours <br> Mon : open 24 hours <br> Tue : open 24 hours <br> Wed : open 24 hours <br> Thu : open 24 hours,TX 77840,"McDonald's, College Station, TX 77840"
McDonald's,Grapevine,"<a href=""tel:+1 817-329-3441"" rel=""nofollow"">+1 817-329-3441</a>","<a href=""https://www.google.com/maps?cid=17467997965141990413"" target=""_blank"" rel=""nofollow"">Get Directions</a>","101 TX-114, Grapevine, TX 76051",Fri : open 24 hours <br> Sat : open 24 hours <br> Sun : open 24 hours <br> Mon : open 24 hours <br> Tue : open 24 hours <br> Wed : open 24 hours <br> Thu : open 24 hours,TX 76051,"McDonald's, Grapevine, TX 76051"
McDonald's,Killeen,"<a href=""tel:+1 254-680-3111"" rel=""nofollow"">+1 254-680-3111</a>","<a href=""https://www.google.com/maps?cid=14093747803182237671"" target=""_blank"" rel=""nofollow"">Get Directions</a>","4300 E Central Texas Expy, Killeen, TX 76543",Fri : open 24 hours <br> Sat : open 24 hours <br> Sun : open 24 hours <br> Mon : open 24 hours <br> Tue : open 24 hours <br> Wed : open 24 hours <br> Thu : open 24 hours,TX 76543,"McDonald's, Killeen, TX 76543"
McDonald's,Italy,"<a href=""tel:+1 972-483-1065"" rel=""nofollow"">+1 972-483-1065</a>","<a href=""https://www.google.com/maps?cid=4749469782801757947"" target=""_blank"" rel=""nofollow"">Get Directions</a>","100 Kinfolk Road, Italy, TX 76651",Fri : open 24 hours <br> Sat : open 24 hours <br> Sun : open 24 hours <br> Mon : open 24 hours <br> Tue : open 24 hours <br> Wed : open 24 hours <br> Thu : open 24 hours,TX 76651,"McDonald's, Italy, TX 76651"
McDonald's,Bryan,"<a href=""tel:+1 979-822-1548"" rel=""nofollow"">+1 979-822-1548</a>","<a href=""https://www.google.com/maps?cid=7250743885465050564"" target=""_blank"" rel=""nofollow"">Get Directions</a>","700 S Texas Ave, Bryan, TX 77803",Fri : open 24 hours <br> Sat : open 24 hours <br> Sun : open 24 hours <br> Mon : open 24 hours <br> Tue : open 24 hours <br> Wed : open 24 hours <br> Thu : open 24 hours,TX 77803,"McDonald's, Bryan, TX 77803"
McDonald's,Center,"<a href=""tel:+1 936-591-0400"" rel=""nofollow"">+1 936-591-0400</a>","<a href=""https://www.google.com/maps?cid=16765776921530735288"" target=""_blank"" rel=""nofollow"">Get Directions</a>","812 Hurst St, Center, TX 75935",Fri : open 24 hours <br> Sat : open 24 hours <br> Sun : open 24 hours <br> Mon : open 24 hours <br> Tue : open 24 hours <br> Wed : open 24 hours <br> Thu : open 24 hours,TX 75935,"McDonald's, Center, TX 75935"
McDonald's,Rhome,"<a href=""tel:+1 817-636-5600"" rel=""nofollow"">+1 817-636-5600</a>","<a href=""https://www.google.com/maps?cid=5401234743777538995"" target=""_blank"" rel=""nofollow"">Get Directions</a>","4800 TX-114, Rhome, TX 76078",Fri : open 24 hours <br> Sat : open 24 hours <br> Sun : open 24 hours <br> Mon : open 24 hours <br> Tue : open 24 hours <br> Wed : open 24 hours <br> Thu : open 24 hours,TX 76078,"McDonald's, Rhome, TX 76078"
McDonald's,Houston,"<a href=""tel:+1 713-790-1482"" rel=""nofollow"">+1 713-790-1482</a>","<a href=""https://www.google.com/maps?cid=9876761350336569571"" target=""_blank"" rel=""nofollow"">Get Directions</a>","6621 Fannin St, Houston, TX 77030",Fri : 5am-3am <br> Sat : 5am-3am <br> Sun : 5am-3am <br> Mon : 5am-3am <br> Tue : 5am-3am <br> Wed : 5am-3am <br> Thu : 5am-3am,TX 77030,"McDonald's, Houston, TX 77030"
McDonald's,Brady,"<a href=""tel:+1 325-597-7211"" rel=""nofollow"">+1 325-597-7211</a>","<a href=""https://www.google.com/maps?cid=6310497908388246895"" target=""_blank"" rel=""nofollow"">Get Directions</a>","2106 S Bridge St, Brady, TX 76825",Thu : 5am-4am <br> Fri : 5am-4am <br> Sat : 5am-4am <br> Sun : 5am-4am <br> Mon : 5am-11pm <br> Tue : 5am-4am <br> Wed : 5am-4am,TX 76825,"McDonald's, Brady, TX 76825"
McDonald's,College Station,"<a href=""tel:+1 979-690-2193"" rel=""nofollow"">+1 979-690-2193</a>","<a href=""https://www.google.com/maps?cid=13272625512706670576"" target=""_blank"" rel=""nofollow"">Get Directions</a>","4440 Texas 6 Frontage Rd, College Station, TX 77845",Fri : 5am-12am <br> Sat : 5am-12am <br> Sun : 5am-11pm <br> Mon : 5am-11pm <br> Tue : 5am-11pm <br> Wed : 5am-11pm <br> Thu : 5am-11pm,TX 77845,"McDonald's, College Station, TX 77845"
McDonald's,Weslaco,"<a href=""tel:+1 956-968-6554"" rel=""nofollow"">+1 956-968-6554</a>","<a href=""https://www.google.com/maps?cid=6618251682085548111"" target=""_blank"" rel=""nofollow"">Get Directions</a>","1025 N Texas, Weslaco, TX 78596",Fri : 5am-12am <br> Sat : 4am-12am <br> Sun : 4am-11pm <br> Mon : 5am-11pm <br> Tue : 5am-11pm <br> Wed : 5am-11pm <br> Thu : 5am-11pm,TX 78596,"McDonald's, Weslaco, TX 78596"
McDonald's,Winnie,"<a href=""tel:+1 409-296-9107"" rel=""nofollow"">+1 409-296-9107</a>","<a href=""https://www.google.com/maps?cid=3278103601584777639"" target=""_blank"" rel=""nofollow"">Get Directions</a>","45951 I-10, Winnie, TX 77665",Fri : open 24 hours <br> Sat : open 24 hours <br> Sun : open 24 hours <br> Mon : open 24 hours <br> Tue : open 24 hours <br> Wed : open 24 hours <br> Thu : open 24 hours,TX 77665,"McDonald's, Winnie, TX 77665"
McDonald's,Mathis,"<a href=""tel:+1 361-547-7171"" rel=""nofollow"">+1 361-547-7171</a>","<a href=""https://www.google.com/maps?cid=578897577762353999"" target=""_blank"" rel=""nofollow"">Get Directions</a>","10539 TX-359, Mathis, TX 78368",Fri : open 24 hours <br> Sat : open 24 hours <br> Sun : open 24 hours <br> Mon : open 24 hours <br> Tue : open 24 hours <br> Wed : open 24 hours <br> Thu : open 24 hours,TX 78368,"McDonald's, Mathis, TX 78368"
McDonald's,Junction,"<a href=""tel:+1 325-446-8005"" rel=""nofollow"">+1 325-446-8005</a>","<a href=""https://www.google.com/maps?cid=13203050833480844024"" target=""_blank"" rel=""nofollow"">Get Directions</a>","2416 N Main St, Junction, TX 76849",Fri : 6am-11pm <br> Sat : 6am-11pm <br> Sun : 6am-11pm <br> Mon : 6am-11pm <br> Tue : 6am-11pm <br> Wed : 6am-11pm <br> Thu : 6am-11pm,TX 76849,"McDonald's, Junction, TX 76849"
McDonald's,Lewisville,"<a href=""tel:+1 972-315-2881"" rel=""nofollow"">+1 972-315-2881</a>","<a href=""https://www.google.com/maps?cid=3328693584176167866"" target=""_blank"" rel=""nofollow"">Get Directions</a>","2301 TX-121, Lewisville, TX 75067",Fri : open 24 hours <br> Sat : open 24 hours <br> Sun : open 24 hours <br> Mon : open 24 hours <br> Tue : open 24 hours <br> Wed : open 24 hours <br> Thu : open 24 hours,TX 75067,"McDonald's, Lewisville, TX 75067"
McDonald's,Lytle,"<a href=""tel:+1 830-709-2900"" rel=""nofollow"">+1 830-709-2900</a>","<a href=""https://www.google.com/maps?cid=5496940358240955620"" target=""_blank"" rel=""nofollow"">Get Directions</a>","14830 Lytle Somerset St, Lytle, TX 78052",Fri : open 24 hours <br> Sat : open 24 hours <br> Sun : open 24 hours <br> Mon : open 24 hours <br> Tue : open 24 hours <br> Wed : open 24 hours <br> Thu : open 24 hours,TX 78052,"McDonald's, Lytle, TX 78052"
McDonald's,Lewisville,"<a href=""tel:+1 214-469-1585"" rel=""nofollow"">+1 214-469-1585</a>","<a href=""https://www.google.com/maps?cid=413510766085226206"" target=""_blank"" rel=""nofollow"">Get Directions</a>","4640 TX-121, Lewisville, TX 75056",Fri : 5am-2am <br> Sat : 5am-2am <br> Sun : 5am-2am <br> Mon : 5am-2am <br> Tue : 5am-2am <br> Wed : 5am-2am <br> Thu : 5am-2am,TX 75056,"McDonald's, Lewisville, TX 75056"
McDonald's,White Oak,"<a href=""tel:+1 903-295-2944"" rel=""nofollow"">+1 903-295-2944</a>","<a href=""https://www.google.com/maps?cid=2895467044441672846"" target=""_blank"" rel=""nofollow"">Get Directions</a>","609 E U.S. Hwy 80, White Oak, TX 75693",Fri : 4 : 30am-1am <br> Sat : 4 : 30am-1am <br> Sun : 5 : 30am-11 : 30pm <br> Mon : 4 : 30am-1am <br> Tue : 4 : 30am-1am <br> Wed : 4 : 30am-1am <br> Thu : 4 : 30am-1am,TX 75693,"McDonald's, White Oak, TX 75693"
McDonald's,Terrell,"<a href=""tel:+1 972-563-3664"" rel=""nofollow"">+1 972-563-3664</a>","<a href=""https://www.google.com/maps?cid=15534047256761156991"" target=""_blank"" rel=""nofollow"">Get Directions</a>","1704 TX-34 S, Terrell, TX 75160",Fri : open 24 hours <br> Sat : open 24 hours <br> Sun : open 24 hours <br> Mon : open 24 hours <br> Tue : open 24 hours <br> Wed : open 24 hours <br> Thu : open 24 hours,TX 75160,"McDonald's, Terrell, TX 75160"
McDonald's,Canyon,"<a href=""tel:+1 806-655-9502"" rel=""nofollow"">+1 806-655-9502</a>","<a href=""https://www.google.com/maps?cid=7401408633007881406"" target=""_blank"" rel=""nofollow"">Get Directions</a>","200 23rd St, Canyon, TX 79015",Fri : 5am-1am <br> Sat : 5am-1am <br> Sun : 5am-11pm <br> Mon : 5am-11pm <br> Tue : 5am-11pm <br> Wed : 5am-11pm <br> Thu : 5am-11pm,TX 79015,"McDonald's, Canyon, TX 79015"
McDonald's,Whitehouse,"<a href=""tel:+1 903-839-1123"" rel=""nofollow"">+1 903-839-1123</a>","<a href=""https://www.google.com/maps?cid=17772578700751231453"" target=""_blank"" rel=""nofollow"">Get Directions</a>","603 Hwy 110 S, Whitehouse, TX 75791",Fri : 5am-10pm <br> Sat : 5am-10pm <br> Sun : 6am-10pm <br> Mon : 5am-10pm <br> Tue : 5am-10pm <br> Wed : 5am-10pm <br> Thu : 5am-10pm,TX 75791,"McDonald's, Whitehouse, TX 75791"
McDonald's,Orange,"<a href=""tel:+1 409-745-4228"" rel=""nofollow"">+1 409-745-4228</a>","<a href=""https://www.google.com/maps?cid=6552454346074141720"" target=""_blank"" rel=""nofollow"">Get Directions</a>","2311 TX-62 N, Orange, TX 77630",Fri : 5am-12am <br> Sat : 5am-12am <br> Sun : 5am-12am <br> Mon : 5am-12am <br> Tue : 5am-12am <br> Wed : 5am-12am <br> Thu : 5am-12am,TX 77630,"McDonald's, Orange, TX 77630"
McDonald's,Bulverde,"<a href=""tel:+1 830-980-8080"" rel=""nofollow"">+1 830-980-8080</a>","<a href=""https://www.google.com/maps?cid=13617434265106867826"" target=""_blank"" rel=""nofollow"">Get Directions</a>","20615 TX-46, Bulverde, TX 78070",Fri : 6am-12am <br> Sat : 6am-12am <br> Sun : 6am-11pm <br> Mon : 6am-11pm <br> Tue : 6am-11pm <br> Wed : 6am-11pm <br> Thu : 6am-11pm,TX 78070,"McDonald's, Bulverde, TX 78070"
McDonald's,Plano,"<a href=""tel:+1 972-668-4040"" rel=""nofollow"">+1 972-668-4040</a>","<a href=""https://www.google.com/maps?cid=375425350477159777"" target=""_blank"" rel=""nofollow"">Get Directions</a>","5004 State Hwy 121, Plano, TX 75024",Fri : 5am-2am <br> Sat : 5am-2am <br> Sun : 5am-2am <br> Mon : 5am-2am <br> Tue : 5am-2am <br> Wed : 5am-2am <br> Thu : 5am-2am,TX 75024,"McDonald's, Plano, TX 75024"
McDonald's,Dallas,"<a href=""tel:+1 972-661-9004"" rel=""nofollow"">+1 972-661-9004</a>","<a href=""https://www.google.com/maps?cid=14726532965122731420"" target=""_blank"" rel=""nofollow"">Get Directions</a>","13350 Dallas Pkwy, Dallas, TX 75240",Fri : 8am-9pm <br> Sat : 8am-9pm <br> Sun : 7am-5pm <br> Mon : 10am-8pm <br> Tue : 7am-9pm <br> Wed : 7am-9pm <br> Thu : 7am-9pm,TX 75240,"McDonald's, Dallas, TX 75240"
McDonald's,La Marque,"<a href=""tel:+1 409-935-0212"" rel=""nofollow"">+1 409-935-0212</a>","<a href=""https://www.google.com/maps?cid=16368389038538952566"" target=""_blank"" rel=""nofollow"">Get Directions</a>","2300 Gulf Fwy, La Marque, TX 77568",Fri : 4am-12am <br> Sat : 4am-12am <br> Sun : 4am-11pm <br> Mon : 4am-11pm <br> Tue : 4am-11pm <br> Wed : 4am-11pm <br> Thu : 4am-11pm,TX 77568,"McDonald's, La Marque, TX 77568"
McDonald's,Willow Park,"<a href=""tel:+1 817-441-7454"" rel=""nofollow"">+1 817-441-7454</a>","<a href=""https://www.google.com/maps?cid=386535034407006270"" target=""_blank"" rel=""nofollow"">Get Directions</a>","5090 I-H 20 East Service Road, Willow Park, TX 76008",Fri : 5am-11pm <br> Sat : 5am-11pm <br> Sun : 6am-11pm <br> Mon : 5am-11pm <br> Tue : 5am-11pm <br> Wed : 5am-11pm <br> Thu : 5am-11pm,TX 76008,"McDonald's, Willow Park, TX 76008"
McDonald's,Roanoke,"<a href=""tel:+1 817-491-3502"" rel=""nofollow"">+1 817-491-3502</a>","<a href=""https://www.google.com/maps?cid=13476665429190509530"" target=""_blank"" rel=""nofollow"">Get Directions</a>","1100 N US Hwy 377, Roanoke, TX 76262",Fri : 6am-11pm <br> Sat : 5am-11pm <br> Sun : 5am-11pm <br> Mon : 5am-11pm <br> Tue : 5am-11pm <br> Wed : 5am-11pm <br> Thu : 5am-11pm,TX 76262,"McDonald's, Roanoke, TX 76262"
McDonald's,Anthony,"<a href=""tel:+1 915-886-3419"" rel=""nofollow"">+1 915-886-3419</a>","<a href=""https://www.google.com/maps?cid=18031338931844324317"" target=""_blank"" rel=""nofollow"">Get Directions</a>","3000 Mountain Pass Blvd, Anthony, TX 79821",Fri : 5am-12am <br> Sat : 5am-12am <br> Sun : 5am-11pm <br> Mon : 5am-11pm <br> Tue : 5am-11pm <br> Wed : 5am-11pm <br> Thu : 5am-11pm,TX 79821,"McDonald's, Anthony, TX 79821"
McDonald's,Sanger,"<a href=""tel:+1 940-458-6601"" rel=""nofollow"">+1 940-458-6601</a>","<a href=""https://www.google.com/maps?cid=16935476313921767203"" target=""_blank"" rel=""nofollow"">Get Directions</a>","601 N Stemmons St, Sanger, TX 76266",Fri : 5am-12am <br> Sat : 5am-12am <br> Sun : 5 : 45am-11pm <br> Mon : 5am-11pm <br> Tue : 5am-11pm <br> Wed : 5am-11pm <br> Thu : 5am-11pm,TX 76266,"McDonald's, Sanger, TX 76266"
McDonald's,Anthony,"<a href=""tel:+1 915-886-2056"" rel=""nofollow"">+1 915-886-2056</a>","<a href=""https://www.google.com/maps?cid=5490451719610171268"" target=""_blank"" rel=""nofollow"">Get Directions</a>","101 S Main St, Anthony, TX 79821",Fri : 5am-12am <br> Sat : 5am-12am <br> Sun : 5am-11pm <br> Mon : 5am-11pm <br> Tue : 5am-11pm <br> Wed : 5am-11pm <br> Thu : 5am-11pm,TX 79821,"McDonald's, Anthony, TX 79821"
McDonald's,Conroe,"<a href=""tel:+1 936-321-5522"" rel=""nofollow"">+1 936-321-5522</a>","<a href=""https://www.google.com/maps?cid=2127931825644379451"" target=""_blank"" rel=""nofollow"">Get Directions</a>","8001 TX-242, Conroe, TX 77385",Fri : open 24 hours <br> Sat : open 24 hours <br> Sun : open 24 hours <br> Mon : open 24 hours <br> Tue : open 24 hours <br> Wed : open 24 hours <br> Thu : open 24 hours,TX 77385,"McDonald's, Conroe, TX 77385"
McDonald's,Commerce,"<a href=""tel:+1 903-886-7771"" rel=""nofollow"">+1 903-886-7771</a>","<a href=""https://www.google.com/maps?cid=4291262783607231960"" target=""_blank"" rel=""nofollow"">Get Directions</a>","2102 Live Oak St, Commerce, TX 75428",Fri : open 24 hours <br> Sat : open 24 hours <br> Sun : open 24 hours <br> Mon : open 24 hours <br> Tue : open 24 hours <br> Wed : open 24 hours <br> Thu : open 24 hours,TX 75428,"McDonald's, Commerce, TX 75428"
McDonald's,Richland Hills,"<a href=""tel:+1 817-284-3999"" rel=""nofollow"">+1 817-284-3999</a>","<a href=""https://www.google.com/maps?cid=10600543268935266820"" target=""_blank"" rel=""nofollow"">Get Directions</a>","7305 Airport Fwy, Richland Hills, TX 76118",Fri : 4am-12am <br> Sat : 4am-12am <br> Sun : 4am-11pm <br> Mon : 4am-11pm <br> Tue : 4am-11pm <br> Wed : 4am-11pm <br> Thu : 4am-11pm,TX 76118,"McDonald's, Richland Hills, TX 76118"
McDonald's,Bee Cave,"<a href=""tel:+1 512-263-8083"" rel=""nofollow"">+1 512-263-8083</a>","<a href=""https://www.google.com/maps?cid=2840838915910864634"" target=""_blank"" rel=""nofollow"">Get Directions</a>","12514 State Hwy 71, Bee Cave, TX 78738",Fri : 5am-12am <br> Sat : 5am-11pm <br> Sun : 5am-11pm <br> Mon : 5am-11pm <br> Tue : 5am-11pm <br> Wed : 5am-11pm <br> Thu : 5am-12am,TX 78738,"McDonald's, Bee Cave, TX 78738"
McDonald's,Dallas,"<a href=""tel:+1 469-227-8533"" rel=""nofollow"">+1 469-227-8533</a>","<a href=""https://www.google.com/maps?cid=8263353877836084355"" target=""_blank"" rel=""nofollow"">Get Directions</a>","1000 Commerce St, Dallas, TX 75202",Fri : open 24 hours <br> Sat : open 24 hours <br> Sun : open 24 hours <br> Mon : open 24 hours <br> Tue : open 24 hours <br> Wed : open 24 hours <br> Thu : open 24 hours,TX 75202,"McDonald's, Dallas, TX 75202"
McDonald's,Montgomery,"<a href=""tel:+1 936-588-1303"" rel=""nofollow"">+1 936-588-1303</a>","<a href=""https://www.google.com/maps?cid=10077771678118319495"" target=""_blank"" rel=""nofollow"">Get Directions</a>","15476 TX-105, Montgomery, TX 77356",Fri : 5am-12am <br> Sat : 5am-12am <br> Sun : 6am-11pm <br> Mon : 5am-11pm <br> Tue : 5am-11pm <br> Wed : 5am-11pm <br> Thu : 5am-11pm,TX 77356,"McDonald's, Montgomery, TX 77356"
McDonald's,San Antonio,"<a href=""tel:+1 210-647-4445"" rel=""nofollow"">+1 210-647-4445</a>","<a href=""https://www.google.com/maps?cid=4879412558466461016"" target=""_blank"" rel=""nofollow"">Get Directions</a>","8819 TX-151, San Antonio, TX 78251",Fri : open 24 hours <br> Sat : open 24 hours <br> Sun : open 24 hours <br> Mon : open 24 hours <br> Tue : open 24 hours <br> Wed : open 24 hours <br> Thu : open 24 hours,TX 78251,"McDonald's, San Antonio, TX 78251"
McDonald's,San Antonio,"<a href=""tel:+1 210-647-4445"" rel=""nofollow"">+1 210-647-4445</a>","<a href=""https://www.google.com/maps?cid=4879412558466461016"" target=""_blank"" rel=""nofollow"">Get Directions</a>","8819 TX-151, San Antonio, TX 78251",Fri : open 24 hours <br> Sat : open 24 hours <br> Sun : open 24 hours <br> Mon : open 24 hours <br> Tue : open 24 hours <br> Wed : open 24 hours <br> Thu : open 24 hours,TX 78251,"McDonald's, San Antonio, TX 78251"
McDonald's,San Marcos,"<a href=""tel:+1 512-353-5110"" rel=""nofollow"">+1 512-353-5110</a>","<a href=""https://www.google.com/maps?cid=12035319292960877780"" target=""_blank"" rel=""nofollow"">Get Directions</a>","1001 TX-123, San Marcos, TX 78666",Fri : open 24 hours <br> Sat : open 24 hours <br> Sun : open 24 hours <br> Mon : open 24 hours <br> Tue : open 24 hours <br> Wed : open 24 hours <br> Thu : open 24 hours,TX 78666,"McDonald's, San Marcos, TX 78666"
McDonald's,Mineola,"<a href=""tel:+1 903-569-3252"" rel=""nofollow"">+1 903-569-3252</a>","<a href=""https://www.google.com/maps?cid=15595631679843039260"" target=""_blank"" rel=""nofollow"">Get Directions</a>","1202 N Pacific St, Mineola, TX 75773",Fri : 5am-12am <br> Sat : 5am-12am <br> Sun : 6am-11pm <br> Mon : 5am-11pm <br> Tue : 5am-11pm <br> Wed : 5am-11pm <br> Thu : 5am-11pm,TX 75773,"McDonald's, Mineola, TX 75773"
McDonald's,New Braunfels,"<a href=""tel:+1 830-620-7747"" rel=""nofollow"">+1 830-620-7747</a>","<a href=""https://www.google.com/maps?cid=16490735851486196599"" target=""_blank"" rel=""nofollow"">Get Directions</a>","4142 TX-337 Loop, New Braunfels, TX 78130",Fri : open 24 hours <br> Sat : open 24 hours <br> Sun : open 24 hours <br> Mon : open 24 hours <br> Tue : open 24 hours <br> Wed : open 24 hours <br> Thu : open 24 hours,TX 78130,"McDonald's, New Braunfels, TX 78130"
McDonald's,Gladewater,"<a href=""tel:+1 903-845-9910"" rel=""nofollow"">+1 903-845-9910</a>","<a href=""https://www.google.com/maps?cid=6893952298975633648"" target=""_blank"" rel=""nofollow"">Get Directions</a>","1100 E Broadway Ave, Gladewater, TX 75647",Fri : 6am-11pm <br> Sat : 6am-11pm <br> Sun : 6am-11pm <br> Mon : 6am-11pm <br> Tue : 6am-11pm <br> Wed : 6am-11pm <br> Thu : 6am-11pm,TX 75647,"McDonald's, Gladewater, TX 75647"
McDonald's,McKinney,"<a href=""tel:+1 972-542-2139"" rel=""nofollow"">+1 972-542-2139</a>","<a href=""https://www.google.com/maps?cid=11510569355527042480"" target=""_blank"" rel=""nofollow"">Get Directions</a>","240 W Eldorado Pkwy, McKinney, TX 75069",Fri : 4am-12am <br> Sat : 4am-12am <br> Sun : 4am-12am <br> Mon : 4am-12am <br> Tue : 4am-12am <br> Wed : 4am-12am <br> Thu : 4am-12am,TX 75069,"McDonald's, McKinney, TX 75069"
McDonald's,Midland,"<a href=""tel:+1 432-699-0768"" rel=""nofollow"">+1 432-699-0768</a>","<a href=""https://www.google.com/maps?cid=3284080935485204018"" target=""_blank"" rel=""nofollow"">Get Directions</a>","3310 W Loop 250 N, Midland, TX 79707",Fri : open 24 hours <br> Sat : open 24 hours <br> Sun : open 24 hours <br> Mon : open 24 hours <br> Tue : open 24 hours <br> Wed : open 24 hours <br> Thu : open 24 hours,TX 79707,"McDonald's, Midland, TX 79707"
McDonald's,Tomball,"<a href=""tel:+1 281-430-3033"" rel=""nofollow"">+1 281-430-3033</a>","<a href=""https://www.google.com/maps?cid=15854834011010919865"" target=""_blank"" rel=""nofollow"">Get Directions</a>","24421 TX-249, Tomball, TX 77375",Fri : open 24 hours <br> Sat : open 24 hours <br> Sun : open 24 hours <br> Mon : open 24 hours <br> Tue : open 24 hours <br> Wed : open 24 hours <br> Thu : open 24 hours,TX 77375,"McDonald's, Tomball, TX 77375"
McDonald's,Post,"<a href=""tel:+1 806-495-0495"" rel=""nofollow"">+1 806-495-0495</a>","<a href=""https://www.google.com/maps?cid=19523341087479284"" target=""_blank"" rel=""nofollow"">Get Directions</a>","102 N Broadway St, Post, TX 79356",Fri : 4am-12am <br> Sat : 4am-12am <br> Sun : 4am-11pm <br> Mon : 4am-11pm <br> Tue : 4am-11pm <br> Wed : 4am-11pm <br> Thu : 4am-11pm,TX 79356,"McDonald's, Post, TX 79356"
McDonald's,Manor,"<a href=""tel:+1 512-272-4300"" rel=""nofollow"">+1 512-272-4300</a>","<a href=""https://www.google.com/maps?cid=10411854166798254723"" target=""_blank"" rel=""nofollow"">Get Directions</a>","12609 Lexington St, Manor, TX 78653",Fri : open 24 hours <br> Sat : open 24 hours <br> Sun : open 24 hours <br> Mon : open 24 hours <br> Tue : open 24 hours <br> Wed : open 24 hours <br> Thu : open 24 hours,TX 78653,"McDonald's, Manor, TX 78653"
McDonald's,Greenville,"<a href=""tel:+1 903-454-6141"" rel=""nofollow"">+1 903-454-6141</a>","<a href=""https://www.google.com/maps?cid=12640307571746667813"" target=""_blank"" rel=""nofollow"">Get Directions</a>","4705 Moulton St, Greenville, TX 75401",Fri : open 24 hours <br> Sat : open 24 hours <br> Sun : open 24 hours <br> Mon : open 24 hours <br> Tue : open 24 hours <br> Wed : open 24 hours <br> Thu : open 24 hours,TX 75401,"McDonald's, Greenville, TX 75401"
McDonald's,Orange,"<a href=""tel:+1 409-886-0646"" rel=""nofollow"">+1 409-886-0646</a>","<a href=""https://www.google.com/maps?cid=18012326775616971774"" target=""_blank"" rel=""nofollow"">Get Directions</a>","1710 N 16th St, Orange, TX 77630",Fri : 5am-11pm <br> Sat : 5am-11pm <br> Sun : 5am-11pm <br> Mon : 5am-11pm <br> Tue : 5am-11pm <br> Wed : 5am-11pm <br> Thu : 5am-11pm,TX 77630,"McDonald's, Orange, TX 77630"
McDonald's,Graham,"<a href=""tel:+1 940-549-5117"" rel=""nofollow"">+1 940-549-5117</a>","<a href=""https://www.google.com/maps?cid=14348754027860766289"" target=""_blank"" rel=""nofollow"">Get Directions</a>","1701 TX-16 S, Graham, TX 76450",Fri : 5am-1am <br> Sat : 5am-1am <br> Sun : 5am-12am <br> Mon : 5am-12am <br> Tue : 5am-12am <br> Wed : 5am-12am <br> Thu : 5am-12am,TX 76450,"McDonald's, Graham, TX 76450"
McDonald's,Lamesa,"<a href=""tel:+1 806-872-6541"" rel=""nofollow"">+1 806-872-6541</a>","<a href=""https://www.google.com/maps?cid=13346560957848936298"" target=""_blank"" rel=""nofollow"">Get Directions</a>","505 N Dallas Ave, Lamesa, TX 79331",Fri : open 24 hours <br> Sat : open 24 hours <br> Sun : 4am-12am <br> Mon : 4am-12am <br> Tue : 4am-12am <br> Wed : 4am-12am <br> Thu : 4am-12am,TX 79331,"McDonald's, Lamesa, TX 79331"
McDonald's,Cedar Park,"<a href=""tel:+1 512-259-5770"" rel=""nofollow"">+1 512-259-5770</a>","<a href=""https://www.google.com/maps?cid=8823103236837404778"" target=""_blank"" rel=""nofollow"">Get Directions</a>","1103 N Bell Blvd, Cedar Park, TX 78613",Fri : open 24 hours <br> Sat : open 24 hours <br> Sun : open 24 hours <br> Mon : open 24 hours <br> Tue : open 24 hours <br> Wed : open 24 hours <br> Thu : open 24 hours,TX 78613,"McDonald's, Cedar Park, TX 78613"
McDonald's,Burnet,"<a href=""tel:+1 512-715-0066"" rel=""nofollow"">+1 512-715-0066</a>","<a href=""https://www.google.com/maps?cid=16291814346973125974"" target=""_blank"" rel=""nofollow"">Get Directions</a>","200 N Water St, Burnet, TX 78611",Fri : 6am-11pm <br> Sat : 6am-11pm <br> Sun : 7am-11pm <br> Mon : 6am-11pm <br> Tue : 6am-11pm <br> Wed : 6am-11pm <br> Thu : 6am-11pm,TX 78611,"McDonald's, Burnet, TX 78611"
McDonald's,Whitney,"<a href=""tel:+1 254-694-1114"" rel=""nofollow"">+1 254-694-1114</a>","<a href=""https://www.google.com/maps?cid=2389438447587162825"" target=""_blank"" rel=""nofollow"">Get Directions</a>","1317 N Brazos St, Whitney, TX 76692",Fri : 6am-11pm <br> Sat : 6am-11pm <br> Sun : 6am-10pm <br> Mon : 6am-10pm <br> Tue : 6am-10pm <br> Wed : 6am-10pm <br> Thu : 6am-10pm,TX 76692,"McDonald's, Whitney, TX 76692"
McDonald's,San Antonio,"<a href=""tel:+1 nan"" rel=""nofollow"">+1 nan</a>","<a href=""https://www.google.com/maps?cid=8772827061686578361"" target=""_blank"" rel=""nofollow"">Get Directions</a>","8107 TX-1604 Loop, San Antonio, TX 78254",Fri : open 24 hours <br> Sat : open 24 hours <br> Sun : open 24 hours <br> Mon : open 24 hours <br> Tue : open 24 hours <br> Wed : open 24 hours <br> Thu : open 24 hours,TX 78254,"McDonald's, San Antonio, TX 78254"
McDonald's,Fort Worth,"<a href=""tel:+1 817-292-5620"" rel=""nofollow"">+1 817-292-5620</a>","<a href=""https://www.google.com/maps?cid=3692644082476944758"" target=""_blank"" rel=""nofollow"">Get Directions</a>","3500 Altamesa Blvd, Fort Worth, TX 76133",Fri : 4 : 30am-12am <br> Sat : open 24 hours <br> Sun : 4am-12am <br> Mon : 4 : 30am-12am <br> Tue : 4 : 30am-12am <br> Wed : 4 : 30am-12am <br> Thu : 4 : 30am-12am,TX 76133,"McDonald's, Fort Worth, TX 76133"
McDonald's,Southlake,"<a href=""tel:+1 817-329-8959"" rel=""nofollow"">+1 817-329-8959</a>","<a href=""https://www.google.com/maps?cid=13743743196261237825"" target=""_blank"" rel=""nofollow"">Get Directions</a>","225 Kimball Pk, Southlake, TX 76092",Fri : 5am-12am <br> Sat : open 24 hours <br> Sun : 4am-12am <br> Mon : 5am-12am <br> Tue : 5am-12am <br> Wed : 5am-12am <br> Thu : 5am-12am,TX 76092,"McDonald's, Southlake, TX 76092"
McDonald's,Decatur,"<a href=""tel:+1 940-627-5950"" rel=""nofollow"">+1 940-627-5950</a>","<a href=""https://www.google.com/maps?cid=2505898735693115978"" target=""_blank"" rel=""nofollow"">Get Directions</a>","908 Hwy 380, Decatur, TX 76234",Fri : 5am-12am <br> Sat : 5am-12am <br> Sun : 5am-11pm <br> Mon : 5am-11pm <br> Tue : 5am-11pm <br> Wed : 5am-11pm <br> Thu : 5am-11pm,TX 76234,"McDonald's, Decatur, TX 76234"
McDonald's,Fort Worth,"<a href=""tel:+1 817-413-0059"" rel=""nofollow"">+1 817-413-0059</a>","<a href=""https://www.google.com/maps?cid=9797049674739783586"" target=""_blank"" rel=""nofollow"">Get Directions</a>","3000 E Berry St, Fort Worth, TX 76119",Fri : 5am-12am <br> Sat : open 24 hours <br> Sun : 4am-1am <br> Mon : 5am-1am <br> Tue : 5am-1am <br> Wed : 5am-1am <br> Thu : 5am-1am,TX 76119,"McDonald's, Fort Worth, TX 76119"
McDonald's,Bastrop,"<a href=""tel:+1 512-321-1591"" rel=""nofollow"">+1 512-321-1591</a>","<a href=""https://www.google.com/maps?cid=1640714797515594584"" target=""_blank"" rel=""nofollow"">Get Directions</a>","496 State Hwy 71 W, Bastrop, TX 78602",Fri : open 24 hours <br> Sat : open 24 hours <br> Sun : open 24 hours <br> Mon : open 24 hours <br> Tue : open 24 hours <br> Wed : open 24 hours <br> Thu : open 24 hours,TX 78602,"McDonald's, Bastrop, TX 78602"
McDonald's,Fort Worth,"<a href=""tel:+1 817-439-8023"" rel=""nofollow"">+1 817-439-8023</a>","<a href=""https://www.google.com/maps?cid=3333932178535326317"" target=""_blank"" rel=""nofollow"">Get Directions</a>","13124 US-287, Fort Worth, TX 76052",Fri : 5am-12am <br> Sat : 5am-12am <br> Sun : 5am-12am <br> Mon : 5am-12am <br> Tue : 5am-12am <br> Wed : 5am-12am <br> Thu : 5am-12am,TX 76052,"McDonald's, Fort Worth, TX 76052"
McDonald's,Grand Prairie,"<a href=""tel:+1 972-237-9654"" rel=""nofollow"">+1 972-237-9654</a>","<a href=""https://www.google.com/maps?cid=11439457113868483381"" target=""_blank"" rel=""nofollow"">Get Directions</a>","102 W Hwy 303, Grand Prairie, TX 75051",Fri : open 24 hours <br> Sat : open 24 hours <br> Sun : open 24 hours <br> Mon : open 24 hours <br> Tue : open 24 hours <br> Wed : open 24 hours <br> Thu : open 24 hours,TX 75051,"McDonald's, Grand Prairie, TX 75051"
McDonald's,Lacy Lakeview,"<a href=""tel:+1 254-867-0404"" rel=""nofollow"">+1 254-867-0404</a>","<a href=""https://www.google.com/maps?cid=12391767148974723157"" target=""_blank"" rel=""nofollow"">Get Directions</a>","4503 I-35, Lacy Lakeview, TX 76705",Fri : 5am-11pm <br> Sat : 5am-11pm <br> Sun : 5am-11pm <br> Mon : 5am-11pm <br> Tue : 5am-11pm <br> Wed : 5am-11pm <br> Thu : 5am-11pm,TX 76705,"McDonald's, Lacy Lakeview, TX 76705"
McDonald's,Royse City,"<a href=""tel:+1 972-635-6880"" rel=""nofollow"">+1 972-635-6880</a>","<a href=""https://www.google.com/maps?cid=12090054932225332209"" target=""_blank"" rel=""nofollow"">Get Directions</a>","200 I-30 Frontage Rd, Royse City, TX 75189",Fri : 4 : 30am-1am <br> Sat : 5 : 30am-1am <br> Sun : 5 : 30am-1am <br> Mon : 4 : 30am-1am <br> Tue : 4 : 30am-1am <br> Wed : 4 : 30am-1am <br> Thu : 4 : 30am-1am,TX 75189,"McDonald's, Royse City, TX 75189"
McDonald's,Bedford,"<a href=""tel:+1 817-399-0097"" rel=""nofollow"">+1 817-399-0097</a>","<a href=""https://www.google.com/maps?cid=11629412427437106153"" target=""_blank"" rel=""nofollow"">Get Directions</a>","3350 Harwood Rd, Bedford, TX 76021",Fri : open 24 hours <br> Sat : open 24 hours <br> Sun : open 24 hours <br> Mon : open 24 hours <br> Tue : open 24 hours <br> Wed : open 24 hours <br> Thu : open 24 hours,TX 76021,"McDonald's, Bedford, TX 76021"
McDonald's,Allen,"<a href=""tel:+1 972-727-2701"" rel=""nofollow"">+1 972-727-2701</a>","<a href=""https://www.google.com/maps?cid=3184598461857161322"" target=""_blank"" rel=""nofollow"">Get Directions</a>","104 Central Expy S, Allen, TX 75002",Fri : open 24 hours <br> Sat : open 24 hours <br> Sun : open 24 hours <br> Mon : open 24 hours <br> Tue : open 24 hours <br> Wed : open 24 hours <br> Thu : open 24 hours,TX 75002,"McDonald's, Allen, TX 75002"
McDonald's,Seminole,"<a href=""tel:+1 432-758-2992"" rel=""nofollow"">+1 432-758-2992</a>","<a href=""https://www.google.com/maps?cid=15377267440662076351"" target=""_blank"" rel=""nofollow"">Get Directions</a>","1001 Hobbs Hwy, Seminole, TX 79360",Fri : 4am-12am <br> Sat : 4am-12am <br> Sun : 4am-11pm <br> Mon : 4am-11pm <br> Tue : 4am-11pm <br> Wed : 4am-11pm <br> Thu : 4am-11pm,TX 79360,"McDonald's, Seminole, TX 79360"
McDonald's,Sherman,"<a href=""tel:+1 903-893-5927"" rel=""nofollow"">+1 903-893-5927</a>","<a href=""https://www.google.com/maps?cid=12892634366907097373"" target=""_blank"" rel=""nofollow"">Get Directions</a>","2217 Texoma Pkwy N, Sherman, TX 75090",Fri : open 24 hours <br> Sat : open 24 hours <br> Sun : open 24 hours <br> Mon : open 24 hours <br> Tue : open 24 hours <br> Wed : open 24 hours <br> Thu : open 24 hours,TX 75090,"McDonald's, Sherman, TX 75090"
McDonald's,Gilmer,"<a href=""tel:+1 903-843-5276"" rel=""nofollow"">+1 903-843-5276</a>","<a href=""https://www.google.com/maps?cid=2503899733183100394"" target=""_blank"" rel=""nofollow"">Get Directions</a>","1700 N Wood St, Gilmer, TX 75644",Fri : 5am-12am <br> Sat : 5am-12am <br> Sun : 6am-12am <br> Mon : 5am-12am <br> Tue : 5am-12am <br> Wed : 5am-12am <br> Thu : 5am-12am,TX 75644,"McDonald's, Gilmer, TX 75644"
McDonald's,Buffalo,"<a href=""tel:+1 903-322-1010"" rel=""nofollow"">+1 903-322-1010</a>","<a href=""https://www.google.com/maps?cid=8554399321339305997"" target=""_blank"" rel=""nofollow"">Get Directions</a>","441 S Craigs Drive, Buffalo, TX 75831",Fri : open 24 hours <br> Sat : open 24 hours <br> Sun : open 24 hours <br> Mon : open 24 hours <br> Tue : open 24 hours <br> Wed : open 24 hours <br> Thu : open 24 hours,TX 75831,"McDonald's, Buffalo, TX 75831"
McDonald's,Lake Jackson,"<a href=""tel:+1 979-299-3008"" rel=""nofollow"">+1 979-299-3008</a>","<a href=""https://www.google.com/maps?cid=1107812690151112160"" target=""_blank"" rel=""nofollow"">Get Directions</a>","118 TX-332 W, Lake Jackson, TX 77566",Fri : 5am-12am <br> Sat : 5am-12am <br> Sun : 5am-12am <br> Mon : 5am-12am <br> Tue : 5am-12am <br> Wed : 5am-12am <br> Thu : 5am-12am,TX 77566,"McDonald's, Lake Jackson, TX 77566"
McDonald's,Hearne,"<a href=""tel:+1 979-279-9877"" rel=""nofollow"">+1 979-279-9877</a>","<a href=""https://www.google.com/maps?cid=17614786300529616949"" target=""_blank"" rel=""nofollow"">Get Directions</a>","1425 N Market St, Hearne, TX 77859",Fri : open 24 hours <br> Sat : open 24 hours <br> Sun : open 24 hours <br> Mon : open 24 hours <br> Tue : open 24 hours <br> Wed : open 24 hours <br> Thu : open 24 hours,TX 77859,"McDonald's, Hearne, TX 77859"
McDonald's,Santa Fe,"<a href=""tel:+1 409-925-1974"" rel=""nofollow"">+1 409-925-1974</a>","<a href=""https://www.google.com/maps?cid=8281985152244767648"" target=""_blank"" rel=""nofollow"">Get Directions</a>","12400 Hwy 6, Santa Fe, TX 77510",Fri : 5am-12am <br> Sat : 5am-12am <br> Sun : 5am-11pm <br> Mon : 5am-11pm <br> Tue : 5am-11pm <br> Wed : 5am-11pm <br> Thu : 5am-11pm,TX 77510,"McDonald's, Santa Fe, TX 77510"
McDonald's,Dallas,"<a href=""tel:+1 214-372-5981"" rel=""nofollow"">+1 214-372-5981</a>","<a href=""https://www.google.com/maps?cid=1503088553772390734"" target=""_blank"" rel=""nofollow"">Get Directions</a>","125 W Camp Wisdom Rd, Dallas, TX 75232",Fri : open 24 hours <br> Sat : open 24 hours <br> Sun : open 24 hours <br> Mon : open 24 hours <br> Tue : open 24 hours <br> Wed : open 24 hours <br> Thu : open 24 hours,TX 75232,"McDonald's, Dallas, TX 75232"
McDonald's,Arlington,"<a href=""tel:+1 817-274-2755"" rel=""nofollow"">+1 817-274-2755</a>","<a href=""https://www.google.com/maps?cid=18371304700495234521"" target=""_blank"" rel=""nofollow"">Get Directions</a>","2575 E Arkansas Ln, Arlington, TX 76010",Fri : open 24 hours <br> Sat : open 24 hours <br> Sun : open 24 hours <br> Mon : open 24 hours <br> Tue : open 24 hours <br> Wed : open 24 hours <br> Thu : open 24 hours,TX 76010,"McDonald's, Arlington, TX 76010"
McDonald's,Cedar Creek,"<a href=""tel:+1 512-247-9993"" rel=""nofollow"">+1 512-247-9993</a>","<a href=""https://www.google.com/maps?cid=7486958583892311500"" target=""_blank"" rel=""nofollow"">Get Directions</a>","2850 E Hwy 71 West, Cedar Creek, TX 78612",Fri : open 24 hours <br> Sat : open 24 hours <br> Sun : open 24 hours <br> Mon : open 24 hours <br> Tue : open 24 hours <br> Wed : open 24 hours <br> Thu : open 24 hours,TX 78612,"McDonald's, Cedar Creek, TX 78612"
McDonald's,Grand Prairie,"<a href=""tel:+1 972-641-7323"" rel=""nofollow"">+1 972-641-7323</a>","<a href=""https://www.google.com/maps?cid=7257417367800783279"" target=""_blank"" rel=""nofollow"">Get Directions</a>","3902 S Great SW Pkwy, Grand Prairie, TX 75052",Fri : open 24 hours <br> Sat : open 24 hours <br> Sun : open 24 hours <br> Mon : open 24 hours <br> Tue : open 24 hours <br> Wed : open 24 hours <br> Thu : open 24 hours,TX 75052,"McDonald's, Grand Prairie, TX 75052"
McDonald's,Comfort,"<a href=""tel:+1 830-995-5621"" rel=""nofollow"">+1 830-995-5621</a>","<a href=""https://www.google.com/maps?cid=12512418367327391615"" target=""_blank"" rel=""nofollow"">Get Directions</a>","43 US Hwy 87, Comfort, TX 78013",Fri : open 24 hours <br> Sat : open 24 hours <br> Sun : open 24 hours <br> Mon : open 24 hours <br> Tue : open 24 hours <br> Wed : open 24 hours <br> Thu : open 24 hours,TX 78013,"McDonald's, Comfort, TX 78013"
McDonald's,Wills Point,"<a href=""tel:+1 903-873-2564"" rel=""nofollow"">+1 903-873-2564</a>","<a href=""https://www.google.com/maps?cid=5784227766835526505"" target=""_blank"" rel=""nofollow"">Get Directions</a>","136 E South Commerce St, Wills Point, TX 75169",Fri : 5am-12am <br> Sat : 5am-12am <br> Sun : 6am-11pm <br> Mon : 5am-11pm <br> Tue : 5am-11pm <br> Wed : 5am-11pm <br> Thu : 5am-11pm,TX 75169,"McDonald's, Wills Point, TX 75169"
McDonald's,Hurst,"<a href=""tel:+1 817-284-4572"" rel=""nofollow"">+1 817-284-4572</a>","<a href=""https://www.google.com/maps?cid=15087375089509068474"" target=""_blank"" rel=""nofollow"">Get Directions</a>","1401 W Pipeline Rd, Hurst, TX 76053",Fri : open 24 hours <br> Sat : open 24 hours <br> Sun : open 24 hours <br> Mon : open 24 hours <br> Tue : open 24 hours <br> Wed : open 24 hours <br> Thu : open 24 hours,TX 76053,"McDonald's, Hurst, TX 76053"
McDonald's,Snyder,"<a href=""tel:+1 325-574-2100"" rel=""nofollow"">+1 325-574-2100</a>","<a href=""https://www.google.com/maps?cid=5035734153550260246"" target=""_blank"" rel=""nofollow"">Get Directions</a>","3414 College Ave, Snyder, TX 79549",Fri : 5am-12am <br> Sat : 5am-12am <br> Sun : 5am-11pm <br> Mon : 5am-11pm <br> Tue : 5am-11pm <br> Wed : 5am-11pm <br> Thu : 5am-11pm,TX 79549,"McDonald's, Snyder, TX 79549"
McDonald's,New Braunfels,"<a href=""tel:+1 830-620-1112"" rel=""nofollow"">+1 830-620-1112</a>","<a href=""https://www.google.com/maps?cid=17160838574269450492"" target=""_blank"" rel=""nofollow"">Get Directions</a>","1761 TX-46 W, New Braunfels, TX 78132",Fri : 6am-12am <br> Sat : 6am-12am <br> Sun : 6am-11pm <br> Mon : 6am-11pm <br> Tue : 6am-11pm <br> Wed : 6am-11pm <br> Thu : 6am-11pm,TX 78132,"McDonald's, New Braunfels, TX 78132"
McDonald's,Bridgeport,"<a href=""tel:+1 940-683-0165"" rel=""nofollow"">+1 940-683-0165</a>","<a href=""https://www.google.com/maps?cid=16228132514890863975"" target=""_blank"" rel=""nofollow"">Get Directions</a>","501 US Hwy 380, Bridgeport, TX 76426",Fri : 4am-1am <br> Sat : 4am-1am <br> Sun : 4am-12am <br> Mon : 4am-12am <br> Tue : 4am-12am <br> Wed : 4am-12am <br> Thu : 4am-12am,TX 76426,"McDonald's, Bridgeport, TX 76426"
McDonald's,Alpine,"<a href=""tel:+1 432-837-3640"" rel=""nofollow"">+1 432-837-3640</a>","<a href=""https://www.google.com/maps?cid=2226096929596871615"" target=""_blank"" rel=""nofollow"">Get Directions</a>","900 E Ave East, Alpine, TX 79830",Fri : 6am-1am <br> Sat : 6am-1am <br> Sun : 6am-1am <br> Mon : 6am-1am <br> Tue : 6am-1am <br> Wed : 6am-1am <br> Thu : 6am-1am,TX 79830,"McDonald's, Alpine, TX 79830"
McDonald's,Fort Worth,"<a href=""tel:+1 817-451-9966"" rel=""nofollow"">+1 817-451-9966</a>","<a href=""https://www.google.com/maps?cid=16309061805652674926"" target=""_blank"" rel=""nofollow"">Get Directions</a>","2250 E Loop 820, Fort Worth, TX 76112",Fri : open 24 hours <br> Sat : open 24 hours <br> Sun : open 24 hours <br> Mon : open 24 hours <br> Tue : open 24 hours <br> Wed : open 24 hours <br> Thu : open 24 hours,TX 76112,"McDonald's, Fort Worth, TX 76112"
McDonald's,Pantego,"<a href=""tel:+1 817-261-3748"" rel=""nofollow"">+1 817-261-3748</a>","<a href=""https://www.google.com/maps?cid=14819826562838240087"" target=""_blank"" rel=""nofollow"">Get Directions</a>","2422 W Pioneer Pkwy, Pantego, TX 76013",Fri : 5am-12am <br> Sat : 5am-12am <br> Sun : 5am-12am <br> Mon : 5am-12am <br> Tue : 5am-12am <br> Wed : 5am-12am <br> Thu : 5am-12am,TX 76013,"McDonald's, Pantego, TX 76013"
McDonald's,Converse,"<a href=""tel:+1 210-659-7513"" rel=""nofollow"">+1 210-659-7513</a>","<a href=""https://www.google.com/maps?cid=10249854153197747432"" target=""_blank"" rel=""nofollow"">Get Directions</a>","7975 Kitty Hawk Rd, Converse, TX 78109",Fri : 5am-1am <br> Sat : 5am-1am <br> Sun : 5am-12am <br> Mon : 5am-12am <br> Tue : 5am-12am <br> Wed : 5am-12am <br> Thu : 5am-12am,TX 78109,"McDonald's, Converse, TX 78109"
McDonald's,Breckenridge,"<a href=""tel:+1 254-559-3313"" rel=""nofollow"">+1 254-559-3313</a>","<a href=""https://www.google.com/maps?cid=12481863764105071889"" target=""_blank"" rel=""nofollow"">Get Directions</a>","3726 W Walker St, Breckenridge, TX 76424",Fri : 5am-1am <br> Sat : 5am-1am <br> Sun : 5am-12am <br> Mon : 5am-12am <br> Tue : 5am-12am <br> Wed : 5am-12am <br> Thu : 5am-12am,TX 76424,"McDonald's, Breckenridge, TX 76424"
McDonald's,Big Spring,"<a href=""tel:+1 432-264-7730"" rel=""nofollow"">+1 432-264-7730</a>","<a href=""https://www.google.com/maps?cid=7631907614317915359"" target=""_blank"" rel=""nofollow"">Get Directions</a>","2600 S Gregg St, Big Spring, TX 79720",Fri : 5am-12am <br> Sat : 5am-12am <br> Sun : 5am-11pm <br> Mon : 5am-11pm <br> Tue : 5am-11pm <br> Wed : 5am-11pm <br> Thu : 5am-11pm,TX 79720,"McDonald's, Big Spring, TX 79720"
McDonald's,Haltom City,"<a href=""tel:+1 817-222-9009"" rel=""nofollow"">+1 817-222-9009</a>","<a href=""https://www.google.com/maps?cid=5904192070613205135"" target=""_blank"" rel=""nofollow"">Get Directions</a>","5641 E Belknap St, Haltom City, TX 76117",Fri : open 24 hours <br> Sat : open 24 hours <br> Sun : open 24 hours <br> Mon : open 24 hours <br> Tue : open 24 hours <br> Wed : open 24 hours <br> Thu : open 24 hours,TX 76117,"McDonald's, Haltom City, TX 76117"
McDonald's,Hallsville,"<a href=""tel:+1 903-668-4650"" rel=""nofollow"">+1 903-668-4650</a>","<a href=""https://www.google.com/maps?cid=2521099077593771529"" target=""_blank"" rel=""nofollow"">Get Directions</a>","404 W Main St, Hallsville, TX 75650",Fri : 6am-11pm <br> Sat : 6am-11pm <br> Sun : 7am-10pm <br> Mon : 6am-11pm <br> Tue : 6am-11pm <br> Wed : 6am-11pm <br> Thu : 6am-11pm,TX 75650,"McDonald's, Hallsville, TX 75650"
McDonald's,Cedar Hill,"<a href=""tel:+1 972-291-7881"" rel=""nofollow"">+1 972-291-7881</a>","<a href=""https://www.google.com/maps?cid=10633146440894609911"" target=""_blank"" rel=""nofollow"">Get Directions</a>","201 FM1382, Cedar Hill, TX 75104",Fri : 5am-11pm <br> Sat : 6am-11pm <br> Sun : 6am-11pm <br> Mon : 5am-11pm <br> Tue : 5am-11pm <br> Wed : 5am-11pm <br> Thu : 5am-11pm,TX 75104,"McDonald's, Cedar Hill, TX 75104"
McDonald's,Alvarado,"<a href=""tel:+1 817-790-5721"" rel=""nofollow"">+1 817-790-5721</a>","<a href=""https://www.google.com/maps?cid=15701662355647994632"" target=""_blank"" rel=""nofollow"">Get Directions</a>","1200 Hwy 67 W, Alvarado, TX 76009",Fri : open 24 hours <br> Sat : open 24 hours <br> Sun : open 24 hours <br> Mon : open 24 hours <br> Tue : open 24 hours <br> Wed : open 24 hours <br> Thu : open 24 hours,TX 76009,"McDonald's, Alvarado, TX 76009"
McDonald's,Robinson,"<a href=""tel:+1 254-662-9565"" rel=""nofollow"">+1 254-662-9565</a>","<a href=""https://www.google.com/maps?cid=888835218609509211"" target=""_blank"" rel=""nofollow"">Get Directions</a>","7961 I-35, Robinson, TX 76706",Fri : 5am-11pm <br> Sat : 5am-11pm <br> Sun : 5am-11pm <br> Mon : 5am-11pm <br> Tue : 5am-11pm <br> Wed : 5am-11pm <br> Thu : 5am-11pm,TX 76706,"McDonald's, Robinson, TX 76706"
McDonald's,Three Rivers,"<a href=""tel:+1 361-786-1020"" rel=""nofollow"">+1 361-786-1020</a>","<a href=""https://www.google.com/maps?cid=2645302163979447951"" target=""_blank"" rel=""nofollow"">Get Directions</a>","2645 Hwy 37 S, Three Rivers, TX 78071",Fri : 5am-12am <br> Sat : open 24 hours <br> Sun : 4am-12am <br> Mon : 5am-12am <br> Tue : 5am-12am <br> Wed : 5am-12am <br> Thu : 5am-12am,TX 78071,"McDonald's, Three Rivers, TX 78071"
McDonald's,Irving,"<a href=""tel:+1 972-986-0131"" rel=""nofollow"">+1 972-986-0131</a>","<a href=""https://www.google.com/maps?cid=1416660812944739331"" target=""_blank"" rel=""nofollow"">Get Directions</a>","4202 W Airport Fwy, Irving, TX 75062",Fri : open 24 hours <br> Sat : open 24 hours <br> Sun : open 24 hours <br> Mon : open 24 hours <br> Tue : open 24 hours <br> Wed : open 24 hours <br> Thu : open 24 hours,TX 75062,"McDonald's, Irving, TX 75062"
McDonald's,Plano,"<a href=""tel:+1 972-618-8925"" rel=""nofollow"">+1 972-618-8925</a>","<a href=""https://www.google.com/maps?cid=2533656472636821028"" target=""_blank"" rel=""nofollow"">Get Directions</a>","3957 Legacy Dr, Plano, TX 75023",Fri : 5am-12am <br> Sat : 5am-12am <br> Sun : 5am-12am <br> Mon : 5am-12am <br> Tue : 5am-12am <br> Wed : 5am-12am <br> Thu : 5am-12am,TX 75023,"McDonald's, Plano, TX 75023"
McDonald's,Houston,"<a href=""tel:+1 713-960-1733"" rel=""nofollow"">+1 713-960-1733</a>","<a href=""https://www.google.com/maps?cid=1962938444966044390"" target=""_blank"" rel=""nofollow"">Get Directions</a>","1405 Post Oak Blvd, Houston, TX 77056",Fri : 4am-11pm <br> Sat : 4am-11pm <br> Sun : 4am-11pm <br> Mon : 4am-11pm <br> Tue : 4am-11pm <br> Wed : 4am-11pm <br> Thu : 4am-11pm,TX 77056,"McDonald's, Houston, TX 77056"
McDonald's,Kermit,"<a href=""tel:+1 432-586-2735"" rel=""nofollow"">+1 432-586-2735</a>","<a href=""https://www.google.com/maps?cid=5180093038294224432"" target=""_blank"" rel=""nofollow"">Get Directions</a>","902 TX-302, Kermit, TX 79745",Fri : 5am-12am <br> Sat : 5am-12am <br> Sun : 5am-12am <br> Mon : 5am-12am <br> Tue : 5am-12am <br> Wed : 5am-12am <br> Thu : 5am-12am,TX 79745,"McDonald's, Kermit, TX 79745"
McDonald's,Longview,"<a href=""tel:+1 nan"" rel=""nofollow"">+1 nan</a>","<a href=""https://www.google.com/maps?cid=94877151739217021"" target=""_blank"" rel=""nofollow"">Get Directions</a>","3118 Estes Pkwy, Longview, TX 75602",Fri : 5am-1am <br> Sat : 5am-1am <br> Sun : 6am-12am <br> Mon : 5am-12am <br> Tue : 5am-12am <br> Wed : 5am-12am <br> Thu : 5am-12am,TX 75602,"McDonald's, Longview, TX 75602"
McDonald's,Plano,"<a href=""tel:+1 972-758-0282"" rel=""nofollow"">+1 972-758-0282</a>","<a href=""https://www.google.com/maps?cid=2346255660545165117"" target=""_blank"" rel=""nofollow"">Get Directions</a>","216 Coit Rd, Plano, TX 75075",Fri : open 24 hours <br> Sat : open 24 hours <br> Sun : open 24 hours <br> Mon : open 24 hours <br> Tue : open 24 hours <br> Wed : open 24 hours <br> Thu : open 24 hours,TX 75075,"McDonald's, Plano, TX 75075"
McDonald's,Plano,"<a href=""tel:+1 972-517-7095"" rel=""nofollow"">+1 972-517-7095</a>","<a href=""https://www.google.com/maps?cid=9856292964531322364"" target=""_blank"" rel=""nofollow"">Get Directions</a>","701 W Spring Creek Pkwy, Plano, TX 75023",Fri : open 24 hours <br> Sat : open 24 hours <br> Sun : open 24 hours <br> Mon : open 24 hours <br> Tue : open 24 hours <br> Wed : open 24 hours <br> Thu : open 24 hours,TX 75023,"McDonald's, Plano, TX 75023"
McDonald's,Farmers Branch,"<a href=""tel:+1 972-458-1952"" rel=""nofollow"">+1 972-458-1952</a>","<a href=""https://www.google.com/maps?cid=10654160212171265365"" target=""_blank"" rel=""nofollow"">Get Directions</a>","13950 Midway Rd, Farmers Branch, TX 75234",Fri : 5am-1am <br> Sat : 5am-1am <br> Sun : 5am-1am <br> Mon : 5am-1am <br> Tue : 5am-1am <br> Wed : 5am-1am <br> Thu : 5am-1am,TX 75234,"McDonald's, Farmers Branch, TX 75234"
McDonald's,Baytown,"<a href=""tel:+1 281-576-5977"" rel=""nofollow"">+1 281-576-5977</a>","<a href=""https://www.google.com/maps?cid=12405511348880397098"" target=""_blank"" rel=""nofollow"">Get Directions</a>","8910 N Hwy 146, Baytown, TX 77520",Fri : open 24 hours <br> Sat : open 24 hours <br> Sun : open 24 hours <br> Mon : open 24 hours <br> Tue : open 24 hours <br> Wed : open 24 hours <br> Thu : open 24 hours,TX 77520,"McDonald's, Baytown, TX 77520"
McDonald's,Big Spring,"<a href=""tel:+1 432-264-7552"" rel=""nofollow"">+1 432-264-7552</a>","<a href=""https://www.google.com/maps?cid=17144209959863691739"" target=""_blank"" rel=""nofollow"">Get Directions</a>","706 I-20, Big Spring, TX 79720",Fri : open 24 hours <br> Sat : open 24 hours <br> Sun : open 24 hours <br> Mon : open 24 hours <br> Tue : open 24 hours <br> Wed : open 24 hours <br> Thu : open 24 hours,TX 79720,"McDonald's, Big Spring, TX 79720"
McDonald's,San Angelo,"<a href=""tel:+1 325-949-7787"" rel=""nofollow"">+1 325-949-7787</a>","<a href=""https://www.google.com/maps?cid=4199530412959187055"" target=""_blank"" rel=""nofollow"">Get Directions</a>","4330 Southwest Blvd, San Angelo, TX 76901",Fri : 4am-2am <br> Sat : 4am-2am <br> Sun : 4am-1am <br> Mon : 4am-1am <br> Tue : 4am-1am <br> Wed : 4am-1am <br> Thu : 4am-1am,TX 76901,"McDonald's, San Angelo, TX 76901"
McDonald's,Fort Worth,"<a href=""tel:+1 817-237-7245"" rel=""nofollow"">+1 817-237-7245</a>","<a href=""https://www.google.com/maps?cid=1392736191782225270"" target=""_blank"" rel=""nofollow"">Get Directions</a>","6356 Jacksboro Hwy, Fort Worth, TX 76135",Fri : 5am-12am <br> Sat : open 24 hours <br> Sun : 4am-12am <br> Mon : 5am-12am <br> Tue : 5am-12am <br> Wed : 5am-12am <br> Thu : 5am-12am,TX 76135,"McDonald's, Fort Worth, TX 76135"
McDonald's,Fredericksburg,"<a href=""tel:+1 830-997-7600"" rel=""nofollow"">+1 830-997-7600</a>","<a href=""https://www.google.com/maps?cid=7223012715521876010"" target=""_blank"" rel=""nofollow"">Get Directions</a>","611 E Main St, Fredericksburg, TX 78624",Fri : 6am-10pm <br> Sat : 6am-10pm <br> Sun : 6am-10pm <br> Mon : 6am-10pm <br> Tue : 6am-10pm <br> Wed : 6am-10pm <br> Thu : 6am-10pm,TX 78624,"McDonald's, Fredericksburg, TX 78624"
McDonald's,Stephenville,"<a href=""tel:+1 254-965-8928"" rel=""nofollow"">+1 254-965-8928</a>","<a href=""https://www.google.com/maps?cid=2468324710807805096"" target=""_blank"" rel=""nofollow"">Get Directions</a>","2819 W Washington St, Stephenville, TX 76401",Fri : open 24 hours <br> Sat : open 24 hours <br> Sun : open 24 hours <br> Mon : open 24 hours <br> Tue : open 24 hours <br> Wed : open 24 hours <br> Thu : open 24 hours,TX 76401,"McDonald's, Stephenville, TX 76401"
McDonald's,Plano,"<a href=""tel:+1 972-633-5135"" rel=""nofollow"">+1 972-633-5135</a>","<a href=""https://www.google.com/maps?cid=11020367462358536574"" target=""_blank"" rel=""nofollow"">Get Directions</a>","605 E 15th St, Plano, TX 75074",Fri : 5am-4am <br> Sat : 5am-4am <br> Sun : 5am-12am <br> Mon : 5am-12am <br> Tue : 5am-12am <br> Wed : 5am-12am <br> Thu : 5am-12am,TX 75074,"McDonald's, Plano, TX 75074"
McDonald's,Canton,"<a href=""tel:+1 903-567-5517"" rel=""nofollow"">+1 903-567-5517</a>","<a href=""https://www.google.com/maps?cid=9638891505279270029"" target=""_blank"" rel=""nofollow"">Get Directions</a>","2254 N Trade Days Blvd, Canton, TX 75103",Fri : 5am-12am <br> Sat : 5am-12am <br> Sun : 5am-11pm <br> Mon : 5am-11pm <br> Tue : 5am-11pm <br> Wed : 5am-11pm <br> Thu : 5am-11pm,TX 75103,"McDonald's, Canton, TX 75103"
McDonald's,Austin,"<a href=""tel:+1 512-288-0805"" rel=""nofollow"">+1 512-288-0805</a>","<a href=""https://www.google.com/maps?cid=10538630837280711675"" target=""_blank"" rel=""nofollow"">Get Directions</a>","7010 State Hwy 71, Austin, TX 78735",Fri : open 24 hours <br> Sat : open 24 hours <br> Sun : 5am-1am <br> Mon : 5am-1am <br> Tue : 5am-1am <br> Wed : 5am-1am <br> Thu : 5am-12am,TX 78735,"McDonald's, Austin, TX 78735"
McDonald's,Temple,"<a href=""tel:+1 254-771-2889"" rel=""nofollow"">+1 254-771-2889</a>","<a href=""https://www.google.com/maps?cid=7248053262631901167"" target=""_blank"" rel=""nofollow"">Get Directions</a>","3403 S 31st St, Temple, TX 76502",Fri : open 24 hours <br> Sat : open 24 hours <br> Sun : open 24 hours <br> Mon : open 24 hours <br> Tue : open 24 hours <br> Wed : open 24 hours <br> Thu : open 24 hours,TX 76502,"McDonald's, Temple, TX 76502"
McDonald's,Dallas,"<a href=""tel:+1 972-233-5952"" rel=""nofollow"">+1 972-233-5952</a>","<a href=""https://www.google.com/maps?cid=11370982946251161541"" target=""_blank"" rel=""nofollow"">Get Directions</a>","13105 Montfort Dr, Dallas, TX 75240",Fri : 5am-1am <br> Sat : 5am-1am <br> Sun : 5am-12am <br> Mon : open 24 hours <br> Tue : 5am-1am <br> Wed : 5am-1am <br> Thu : 5am-1am,TX 75240,"McDonald's, Dallas, TX 75240"
McDonald's,Round Rock,"<a href=""tel:+1 512-238-7508"" rel=""nofollow"">+1 512-238-7508</a>","<a href=""https://www.google.com/maps?cid=808415606557561331"" target=""_blank"" rel=""nofollow"">Get Directions</a>","2401 N I H 35, Round Rock, TX 78664",Fri : 6am-12am <br> Sat : 6am-12am <br> Sun : 6am-12am <br> Mon : 6am-12am <br> Tue : 6am-12am <br> Wed : 6am-12am <br> Thu : 6am-12am,TX 78664,"McDonald's, Round Rock, TX 78664"
McDonald's,Austin,"<a href=""tel:+1 512-248-2322"" rel=""nofollow"">+1 512-248-2322</a>","<a href=""https://www.google.com/maps?cid=7597463651116134702"" target=""_blank"" rel=""nofollow"">Get Directions</a>","10525 W Parmer Ln, Austin, TX 78717",Fri : 5am-11pm <br> Sat : 5am-11pm <br> Sun : 5am-11pm <br> Mon : 5am-11pm <br> Tue : 5am-12am <br> Wed : 5am-12am <br> Thu : 5am-11pm,TX 78717,"McDonald's, Austin, TX 78717"
McDonald's,Dallas,"<a href=""tel:+1 214-373-0794"" rel=""nofollow"">+1 214-373-0794</a>","<a href=""https://www.google.com/maps?cid=3408830219476563636"" target=""_blank"" rel=""nofollow"">Get Directions</a>","10720 Preston Rd, Dallas, TX 75230",Fri : 8am-7pm <br> Sat : 8am-7pm <br> Sun : 8am-7pm <br> Mon : 8am-7pm <br> Tue : 8am-7pm <br> Wed : 8am-7pm <br> Thu : 8am-7pm,TX 75230,"McDonald's, Dallas, TX 75230"
McDonald's,Saginaw,"<a href=""tel:+1 817-625-6441"" rel=""nofollow"">+1 817-625-6441</a>","<a href=""https://www.google.com/maps?cid=13411466465978885702"" target=""_blank"" rel=""nofollow"">Get Directions</a>","5321 Blue Mound Rd, Saginaw, TX 76106",Fri : 5am-12am <br> Sat : 5am-12am <br> Sun : 5am-11pm <br> Mon : 5am-11pm <br> Tue : 5am-11pm <br> Wed : 5am-11pm <br> Thu : 5am-11pm,TX 76106,"McDonald's, Saginaw, TX 76106"
McDonald's,Mt Vernon,"<a href=""tel:+1 903-588-3200"" rel=""nofollow"">+1 903-588-3200</a>","<a href=""https://www.google.com/maps?cid=15270704037363360180"" target=""_blank"" rel=""nofollow"">Get Directions</a>","906 TX-37, Mt Vernon, TX 75457",Fri : 5am-11pm <br> Sat : 5am-11pm <br> Sun : 5am-12am <br> Mon : 5am-12am <br> Tue : 5am-11pm <br> Wed : 5am-11pm <br> Thu : 5am-11pm,TX 75457,"McDonald's, Mt Vernon, TX 75457"
McDonald's,Frisco,"<a href=""tel:+1 214-705-0935"" rel=""nofollow"">+1 214-705-0935</a>","<a href=""https://www.google.com/maps?cid=2960638246058763164"" target=""_blank"" rel=""nofollow"">Get Directions</a>","5615 W Eldorado Pkwy, Frisco, TX 75034",Fri : 5am-1am <br> Sat : 5am-1am <br> Sun : 5am-1am <br> Mon : 5am-1am <br> Tue : 5am-1am <br> Wed : 5am-1am <br> Thu : 5am-1am,TX 75034,"McDonald's, Frisco, TX 75034"
McDonald's,Richmond,"<a href=""tel:+1 281-239-2226"" rel=""nofollow"">+1 281-239-2226</a>","<a href=""https://www.google.com/maps?cid=12428792014526242614"" target=""_blank"" rel=""nofollow"">Get Directions</a>","5660 W Grand Pkwy S, Richmond, TX 77406",Fri : 7am-11pm <br> Sat : 7am-11pm <br> Sun : 7am-10pm <br> Mon : 7am-10pm <br> Tue : 7am-11pm <br> Wed : 7am-11pm <br> Thu : 7am-11pm,TX 77406,"McDonald's, Richmond, TX 77406"
McDonald's,Coppell,"<a href=""tel:+1 972-462-7881"" rel=""nofollow"">+1 972-462-7881</a>","<a href=""https://www.google.com/maps?cid=7939071680760239468"" target=""_blank"" rel=""nofollow"">Get Directions</a>","125 S Denton Tap Rd, Coppell, TX 75019",Fri : 5am-12am <br> Sat : 6am-12am <br> Sun : 6am-12am <br> Mon : 5am-12am <br> Tue : 5am-12am <br> Wed : 5am-12am <br> Thu : 5am-12am,TX 75019,"McDonald's, Coppell, TX 75019"
McDonald's,Woodville,"<a href=""tel:+1 409-283-5855"" rel=""nofollow"">+1 409-283-5855</a>","<a href=""https://www.google.com/maps?cid=4146241954026919445"" target=""_blank"" rel=""nofollow"">Get Directions</a>","1100 S Magnolia St, Woodville, TX 75979",Fri : 5am-11pm <br> Sat : 5am-11pm <br> Sun : 5am-11pm <br> Mon : 5am-11pm <br> Tue : 5am-11pm <br> Wed : 5am-11pm <br> Thu : 5am-11pm,TX 75979,"McDonald's, Woodville, TX 75979"
McDonald's,Bonham,"<a href=""tel:+1 903-640-1800"" rel=""nofollow"">+1 903-640-1800</a>","<a href=""https://www.google.com/maps?cid=7463621805919356468"" target=""_blank"" rel=""nofollow"">Get Directions</a>","2241 N Center St, Bonham, TX 75418",Fri : 5am-12am <br> Sat : 5am-12am <br> Sun : 5am-12am <br> Mon : 5am-12am <br> Tue : 5am-12am <br> Wed : 5am-12am <br> Thu : 5am-12am,TX 75418,"McDonald's, Bonham, TX 75418"
McDonald's,Fort Worth,"<a href=""tel:+1 817-624-2976"" rel=""nofollow"">+1 817-624-2976</a>","<a href=""https://www.google.com/maps?cid=15476825060514058835"" target=""_blank"" rel=""nofollow"">Get Directions</a>","2248 Jacksboro Hwy, Fort Worth, TX 76106",Fri : 5am-1am <br> Sat : 5am-1am <br> Sun : 6am-12am <br> Mon : 5am-12am <br> Tue : 5am-12am <br> Wed : 5am-12am <br> Thu : 5am-12am,TX 76106,"McDonald's, Fort Worth, TX 76106"
McDonald's,Arlington,"<a href=""tel:+1 817-795-3791"" rel=""nofollow"">+1 817-795-3791</a>","<a href=""https://www.google.com/maps?cid=16477683707991798457"" target=""_blank"" rel=""nofollow"">Get Directions</a>","1704 W Randol Mill Rd, Arlington, TX 76012",Fri : 5am-12am <br> Sat : 5am-12am <br> Sun : 5am-12am <br> Mon : 5am-12am <br> Tue : 5am-12am <br> Wed : 5am-12am <br> Thu : 5am-12am,TX 76012,"McDonald's, Arlington, TX 76012"
McDonald's,Weatherford,"<a href=""tel:+1 817-594-6215"" rel=""nofollow"">+1 817-594-6215</a>","<a href=""https://www.google.com/maps?cid=7540920004589235231"" target=""_blank"" rel=""nofollow"">Get Directions</a>","2407 S Main St, Weatherford, TX 76086",Fri : 5am-3am <br> Sat : 5am-3am <br> Sun : 5am-3am <br> Mon : 5am-3am <br> Tue : 5am-3am <br> Wed : 5am-3am <br> Thu : 5am-3am,TX 76086,"McDonald's, Weatherford, TX 76086"
McDonald's,Pflugerville,"<a href=""tel:+1 512-989-2411"" rel=""nofollow"">+1 512-989-2411</a>","<a href=""https://www.google.com/maps?cid=13381304656352974319"" target=""_blank"" rel=""nofollow"">Get Directions</a>","1517 Farm to Market 685, Pflugerville, TX 78660",Fri : 6am-1am <br> Sat : 6am-1am <br> Sun : 6am-11pm <br> Mon : 6am-11pm <br> Tue : 6am-11pm <br> Wed : 6am-11pm <br> Thu : 6am-11pm,TX 78660,"McDonald's, Pflugerville, TX 78660"
McDonald's,Round Rock,"<a href=""tel:+1 512-255-2451"" rel=""nofollow"">+1 512-255-2451</a>","<a href=""https://www.google.com/maps?cid=8259958920776543381"" target=""_blank"" rel=""nofollow"">Get Directions</a>","310 N Interstate Hwy 35, Round Rock, TX 78664",Fri : 5am-11pm <br> Sat : 5am-11pm <br> Sun : 5am-11pm <br> Mon : 5am-11pm <br> Tue : 5am-11pm <br> Wed : 5am-11pm <br> Thu : 5am-11pm,TX 78664,"McDonald's, Round Rock, TX 78664"
McDonald's,Andrews,"<a href=""tel:+1 432-524-2200"" rel=""nofollow"">+1 432-524-2200</a>","<a href=""https://www.google.com/maps?cid=13660683641300077171"" target=""_blank"" rel=""nofollow"">Get Directions</a>","1201 S Main St, Andrews, TX 79714",Fri : 5am-12am <br> Sat : open 24 hours <br> Sun : 5am-12am <br> Mon : 5am-12am <br> Tue : 5am-12am <br> Wed : 5am-12am <br> Thu : 5am-12am,TX 79714,"McDonald's, Andrews, TX 79714"
McDonald's,Sachse,"<a href=""tel:+1 972-530-6234"" rel=""nofollow"">+1 972-530-6234</a>","<a href=""https://www.google.com/maps?cid=8402175650574175422"" target=""_blank"" rel=""nofollow"">Get Directions</a>","5230 S State Hwy 78, Sachse, TX 75048",Fri : 5am-12am <br> Sat : 5am-12am <br> Sun : 5am-12am <br> Mon : 5am-12am <br> Tue : 5am-12am <br> Wed : 5am-12am <br> Thu : 5am-12am,TX 75048,"McDonald's, Sachse, TX 75048"
McDonald's,Plano,"<a href=""tel:+1 972-423-6443"" rel=""nofollow"">+1 972-423-6443</a>","<a href=""https://www.google.com/maps?cid=14377238605885964251"" target=""_blank"" rel=""nofollow"">Get Directions</a>","2100 W 15th St, Plano, TX 75075",Fri : open 24 hours <br> Sat : open 24 hours <br> Sun : open 24 hours <br> Mon : open 24 hours <br> Tue : open 24 hours <br> Wed : open 24 hours <br> Thu : open 24 hours,TX 75075,"McDonald's, Plano, TX 75075"
McDonald's,Dallas,"<a href=""tel:+1 214-350-7731"" rel=""nofollow"">+1 214-350-7731</a>","<a href=""https://www.google.com/maps?cid=10790648766185109155"" target=""_blank"" rel=""nofollow"">Get Directions</a>","5722 W Lovers Ln, Dallas, TX 75209",Fri : open 24 hours <br> Sat : open 24 hours <br> Sun : 4am-11pm <br> Mon : 4am-11pm <br> Tue : 4am-11pm <br> Wed : 4am-11pm <br> Thu : 4am-11pm,TX 75209,"McDonald's, Dallas, TX 75209"
McDonald's,Plano,"<a href=""tel:+1 972-473-8683"" rel=""nofollow"">+1 972-473-8683</a>","<a href=""https://www.google.com/maps?cid=12494678367653605494"" target=""_blank"" rel=""nofollow"">Get Directions</a>","6001 W Parker Rd, Plano, TX 75093",Fri : open 24 hours <br> Sat : open 24 hours <br> Sun : open 24 hours <br> Mon : open 24 hours <br> Tue : open 24 hours <br> Wed : open 24 hours <br> Thu : open 24 hours,TX 75093,"McDonald's, Plano, TX 75093"
McDonald's,Marble Falls,"<a href=""tel:+1 830-693-4911"" rel=""nofollow"">+1 830-693-4911</a>","<a href=""https://www.google.com/maps?cid=11804740515830110726"" target=""_blank"" rel=""nofollow"">Get Directions</a>","1605 Hwy 1431 W, Marble Falls, TX 78654",Fri : 6am-11pm <br> Sat : 6am-11pm <br> Sun : 7am-11pm <br> Mon : 6am-11pm <br> Tue : 6am-11pm <br> Wed : 6am-11pm <br> Thu : 6am-11pm,TX 78654,"McDonald's, Marble Falls, TX 78654"
McDonald's,Midlothian,"<a href=""tel:+1 972-775-1974"" rel=""nofollow"">+1 972-775-1974</a>","<a href=""https://www.google.com/maps?cid=13976104702655595801"" target=""_blank"" rel=""nofollow"">Get Directions</a>","1310 US Hwy 287 E, Midlothian, TX 76065",Fri : 5am-11pm <br> Sat : 5am-11pm <br> Sun : 6am-11pm <br> Mon : 5am-11pm <br> Tue : 5am-11pm <br> Wed : 5am-11pm <br> Thu : 5am-11pm,TX 76065,"McDonald's, Midlothian, TX 76065"
McDonald's,Farm-To-Market Rd 1882,"<a href=""tel:+1 432-332-3481"" rel=""nofollow"">+1 432-332-3481</a>","<a href=""https://www.google.com/maps?cid=13680704648666921523"" target=""_blank"" rel=""nofollow"">Get Directions</a>","1901 County Road, Farm-To-Market Rd 1882, Odessa, TX 79763",Fri : open 24 hours <br> Sat : open 24 hours <br> Sun : open 24 hours <br> Mon : open 24 hours <br> Tue : open 24 hours <br> Wed : open 24 hours <br> Thu : open 24 hours,,"McDonald's, Farm-To-Market Rd 1882, "
McDonald's,League City,"<a href=""tel:+1 281-557-3257"" rel=""nofollow"">+1 281-557-3257</a>","<a href=""https://www.google.com/maps?cid=2621300849872845252"" target=""_blank"" rel=""nofollow"">Get Directions</a>","102 TX-3, League City, TX 77573",Fri : 4am-12am <br> Sat : 4am-12am <br> Sun : 4am-11pm <br> Mon : 4am-11pm <br> Tue : 4am-11pm <br> Wed : 4am-11pm <br> Thu : 4am-11pm,TX 77573,"McDonald's, League City, TX 77573"
McDonald's,McKinney,"<a href=""tel:+1 972-542-5675"" rel=""nofollow"">+1 972-542-5675</a>","<a href=""https://www.google.com/maps?cid=17914775226547575943"" target=""_blank"" rel=""nofollow"">Get Directions</a>","402 N Central Expy, McKinney, TX 75070",Fri : open 24 hours <br> Sat : open 24 hours <br> Sun : open 24 hours <br> Mon : open 24 hours <br> Tue : open 24 hours <br> Wed : open 24 hours <br> Thu : open 24 hours,TX 75070,"McDonald's, McKinney, TX 75070"
McDonald's,Monahans,"<a href=""tel:+1 432-943-3264"" rel=""nofollow"">+1 432-943-3264</a>","<a href=""https://www.google.com/maps?cid=6231403365642727553"" target=""_blank"" rel=""nofollow"">Get Directions</a>","1905 S Stockton Ave, Monahans, TX 79756",Fri : 5am-12am <br> Sat : 5am-12am <br> Sun : 5am-12am <br> Mon : 5am-12am <br> Tue : 5am-12am <br> Wed : 5am-12am <br> Thu : 5am-12am,TX 79756,"McDonald's, Monahans, TX 79756"
McDonald's,Clyde,"<a href=""tel:+1 325-893-1492"" rel=""nofollow"">+1 325-893-1492</a>","<a href=""https://www.google.com/maps?cid=5275735285204045680"" target=""_blank"" rel=""nofollow"">Get Directions</a>","1700 S Access Rd, Clyde, TX 79510",Fri : 6am-12am <br> Sat : 6am-12am <br> Sun : 6am-11pm <br> Mon : 6am-11pm <br> Tue : 6am-11pm <br> Wed : 6am-11pm <br> Thu : 6am-11pm,TX 79510,"McDonald's, Clyde, TX 79510"
McDonald's,Crowley,"<a href=""tel:+1 817-297-7092"" rel=""nofollow"">+1 817-297-7092</a>","<a href=""https://www.google.com/maps?cid=10903813332338487236"" target=""_blank"" rel=""nofollow"">Get Directions</a>","464 E Main St, Crowley, TX 76036",Fri : 4 : 30am-12am <br> Sat : 4 : 30am-12am <br> Sun : 6am-11pm <br> Mon : 4 : 30am-11pm <br> Tue : 4 : 30am-11pm <br> Wed : 4 : 30am-11pm <br> Thu : 4 : 30am-11pm,TX 76036,"McDonald's, Crowley, TX 76036"
McDonald's,Austin,"<a href=""tel:+1 512-912-7511"" rel=""nofollow"">+1 512-912-7511</a>","<a href=""https://www.google.com/maps?cid=14921818485124777276"" target=""_blank"" rel=""nofollow"">Get Directions</a>","4501 E Ben White Blvd, Austin, TX 78741",Fri : open 24 hours <br> Sat : open 24 hours <br> Sun : open 24 hours <br> Mon : open 24 hours <br> Tue : open 24 hours <br> Wed : open 24 hours <br> Thu : open 24 hours,TX 78741,"McDonald's, Austin, TX 78741"
McDonald's,Midland,"<a href=""tel:+1 432-563-1876"" rel=""nofollow"">+1 432-563-1876</a>","<a href=""https://www.google.com/maps?cid=7523709891566375273"" target=""_blank"" rel=""nofollow"">Get Directions</a>","4015 Farm to Market 1788, Midland, TX 79706",Fri : open 24 hours <br> Sat : open 24 hours <br> Sun : open 24 hours <br> Mon : open 24 hours <br> Tue : open 24 hours <br> Wed : open 24 hours <br> Thu : open 24 hours,TX 79706,"McDonald's, Midland, TX 79706"
McDonald's,Harker Heights,"<a href=""tel:+1 254-698-1741"" rel=""nofollow"">+1 254-698-1741</a>","<a href=""https://www.google.com/maps?cid=2842344192391292679"" target=""_blank"" rel=""nofollow"">Get Directions</a>","920 Knight's Way, Harker Heights, TX 76548",Fri : 6am-12am <br> Sat : 6am-12am <br> Sun : 6am-12am <br> Mon : 6am-12am <br> Tue : 6am-12am <br> Wed : 6am-12am <br> Thu : 6am-12am,TX 76548,"McDonald's, Harker Heights, TX 76548"
McDonald's,Dallas,"<a href=""tel:+1 972-233-8788"" rel=""nofollow"">+1 972-233-8788</a>","<a href=""https://www.google.com/maps?cid=6908135529518091063"" target=""_blank"" rel=""nofollow"">Get Directions</a>","14770 Preston Rd, Dallas, TX 75240",Fri : open 24 hours <br> Sat : open 24 hours <br> Sun : open 24 hours <br> Mon : open 24 hours <br> Tue : open 24 hours <br> Wed : open 24 hours <br> Thu : open 24 hours,TX 75240,"McDonald's, Dallas, TX 75240"
McDonald's,McKinney,"<a href=""tel:+1 214-726-0877"" rel=""nofollow"">+1 214-726-0877</a>","<a href=""https://www.google.com/maps?cid=11223431553871241186"" target=""_blank"" rel=""nofollow"">Get Directions</a>","3200 W Eldorado Pkwy, McKinney, TX 75070",Fri : open 24 hours <br> Sat : open 24 hours <br> Sun : open 24 hours <br> Mon : open 24 hours <br> Tue : open 24 hours <br> Wed : open 24 hours <br> Thu : open 24 hours,TX 75070,"McDonald's, McKinney, TX 75070"
McDonald's,Fort Worth,"<a href=""tel:+1 817-283-7028"" rel=""nofollow"">+1 817-283-7028</a>","<a href=""https://www.google.com/maps?cid=18153018996289539733"" target=""_blank"" rel=""nofollow"">Get Directions</a>","14100 Center Station Dr, Fort Worth, TX 76155",Fri : open 24 hours <br> Sat : open 24 hours <br> Sun : open 24 hours <br> Mon : open 24 hours <br> Tue : open 24 hours <br> Wed : open 24 hours <br> Thu : open 24 hours,TX 76155,"McDonald's, Fort Worth, TX 76155"
McDonald's,Spring,"<a href=""tel:+1 281-651-6777"" rel=""nofollow"">+1 281-651-6777</a>","<a href=""https://www.google.com/maps?cid=514310907249961985"" target=""_blank"" rel=""nofollow"">Get Directions</a>","5905 Farm to Market 2920, Spring, TX 77388",Fri : open 24 hours <br> Sat : open 24 hours <br> Sun : open 24 hours <br> Mon : open 24 hours <br> Tue : open 24 hours <br> Wed : open 24 hours <br> Thu : open 24 hours,TX 77388,"McDonald's, Spring, TX 77388"
McDonald's,Sweetwater,"<a href=""tel:+1 325-235-1520"" rel=""nofollow"">+1 325-235-1520</a>","<a href=""https://www.google.com/maps?cid=14407399732181678324"" target=""_blank"" rel=""nofollow"">Get Directions</a>","201 NE Georgia Ave, Sweetwater, TX 79556",Fri : 5am-1am <br> Sat : 5am-1am <br> Sun : 5am-12am <br> Mon : 5am-12am <br> Tue : 5am-12am <br> Wed : 5am-12am <br> Thu : 5am-12am,TX 79556,"McDonald's, Sweetwater, TX 79556"
McDonald's,Mineral Wells,"<a href=""tel:+1 940-328-1930"" rel=""nofollow"">+1 940-328-1930</a>","<a href=""https://www.google.com/maps?cid=12029953990027068089"" target=""_blank"" rel=""nofollow"">Get Directions</a>","100 Garrett Morris Pkwy, Mineral Wells, TX 76067",Fri : open 24 hours <br> Sat : open 24 hours <br> Sun : open 24 hours <br> Mon : open 24 hours <br> Tue : open 24 hours <br> Wed : open 24 hours <br> Thu : open 24 hours,TX 76067,"McDonald's, Mineral Wells, TX 76067"
McDonald's,Abilene,"<a href=""tel:+1 325-691-5902"" rel=""nofollow"">+1 325-691-5902</a>","<a href=""https://www.google.com/maps?cid=9912131383807101605"" target=""_blank"" rel=""nofollow"">Get Directions</a>","3147 S 14th St, Abilene, TX 79605",Fri : 6am-12am <br> Sat : 6am-12am <br> Sun : 6am-12am <br> Mon : 6am-12am <br> Tue : 6am-12am <br> Wed : 6am-12am <br> Thu : 6am-12am,TX 79605,"McDonald's, Abilene, TX 79605"
McDonald's,Granbury,"<a href=""tel:+1 817-579-9676"" rel=""nofollow"">+1 817-579-9676</a>","<a href=""https://www.google.com/maps?cid=667255043832233068"" target=""_blank"" rel=""nofollow"">Get Directions</a>","3908 Hwy 377 East, Granbury, TX 76049",Fri : open 24 hours <br> Sat : open 24 hours <br> Sun : open 24 hours <br> Mon : open 24 hours <br> Tue : open 24 hours <br> Wed : open 24 hours <br> Thu : open 24 hours,TX 76049,"McDonald's, Granbury, TX 76049"
McDonald's,Watauga,"<a href=""tel:+1 817-427-5743"" rel=""nofollow"">+1 817-427-5743</a>","<a href=""https://www.google.com/maps?cid=12466685037768294238"" target=""_blank"" rel=""nofollow"">Get Directions</a>","7040 Denton Hwy, Watauga, TX 76148",Fri : 5am-2am <br> Sat : 5am-2am <br> Sun : 5am-12am <br> Mon : 5am-12am <br> Tue : 5am-12am <br> Wed : 5am-12am <br> Thu : 5am-12am,TX 76148,"McDonald's, Watauga, TX 76148"
McDonald's,Houston,"<a href=""tel:+1 713-861-1341"" rel=""nofollow"">+1 713-861-1341</a>","<a href=""https://www.google.com/maps?cid=5330987318451495683"" target=""_blank"" rel=""nofollow"">Get Directions</a>","3025 Ella Blvd, Houston, TX 77018",Fri : 5 : 30am-11pm <br> Sat : 5 : 30am-11pm <br> Sun : 5 : 30am-12am <br> Mon : 5 : 30am-12am <br> Tue : 5 : 30am-11pm <br> Wed : 5 : 30am-11pm <br> Thu : 5 : 30am-11pm,TX 77018,"McDonald's, Houston, TX 77018"
McDonald's,Irving,"<a href=""tel:+1 972-255-1387"" rel=""nofollow"">+1 972-255-1387</a>","<a href=""https://www.google.com/maps?cid=3836348767867537088"" target=""_blank"" rel=""nofollow"">Get Directions</a>","4098 N Belt Line Rd, Irving, TX 75038",Fri : open 24 hours <br> Sat : open 24 hours <br> Sun : open 24 hours <br> Mon : open 24 hours <br> Tue : open 24 hours <br> Wed : open 24 hours <br> Thu : open 24 hours,TX 75038,"McDonald's, Irving, TX 75038"
McDonald's,Lubbock,"<a href=""tel:+1 806-747-5536"" rel=""nofollow"">+1 806-747-5536</a>","<a href=""https://www.google.com/maps?cid=5772229530391231630"" target=""_blank"" rel=""nofollow"">Get Directions</a>","2339 19th St, Lubbock, TX 79401",Fri : 4am-3am <br> Sat : 4am-3am <br> Sun : 4am-11pm <br> Mon : 6am-11pm <br> Tue : 6am-3am <br> Wed : 4am-3am <br> Thu : 4am-3am,TX 79401,"McDonald's, Lubbock, TX 79401"
McDonald's,San Antonio,"<a href=""tel:+1 210-227-5007"" rel=""nofollow"">+1 210-227-5007</a>","<a href=""https://www.google.com/maps?cid=6332844607915417279"" target=""_blank"" rel=""nofollow"">Get Directions</a>","721 San Pedro Ave, San Antonio, TX 78212",Fri : open 24 hours <br> Sat : open 24 hours <br> Sun : open 24 hours <br> Mon : open 24 hours <br> Tue : open 24 hours <br> Wed : open 24 hours <br> Thu : open 24 hours,TX 78212,"McDonald's, San Antonio, TX 78212"
McDonald's,Seguin,"<a href=""tel:+1 830-379-0076"" rel=""nofollow"">+1 830-379-0076</a>","<a href=""https://www.google.com/maps?cid=14976436335581556123"" target=""_blank"" rel=""nofollow"">Get Directions</a>","1811 I 10 W, Seguin, TX 78155",Fri : 6am-1am <br> Sat : 6am-1am <br> Sun : 6am-11pm <br> Mon : 6am-11pm <br> Tue : 6am-11pm <br> Wed : 6am-11pm <br> Thu : 6am-11pm,TX 78155,"McDonald's, Seguin, TX 78155"
McDonald's,Dallas,"<a href=""tel:+1 972-243-7833"" rel=""nofollow"">+1 972-243-7833</a>","<a href=""https://www.google.com/maps?cid=17658472964249811932"" target=""_blank"" rel=""nofollow"">Get Directions</a>","2475 Royal Ln, Dallas, TX 75229",Fri : 5am-1 : 30am <br> Sat : 5am-1 : 30am <br> Sun : 6am-11 : 30pm <br> Mon : 5am-11pm <br> Tue : 5am-11 : 30pm <br> Wed : 5am-11 : 30pm <br> Thu : 5am-11 : 30pm,TX 75229,"McDonald's, Dallas, TX 75229"
McDonald's,Canyon Lake,"<a href=""tel:+1 830-227-5650"" rel=""nofollow"">+1 830-227-5650</a>","<a href=""https://www.google.com/maps?cid=12156874073889272331"" target=""_blank"" rel=""nofollow"">Get Directions</a>","8036 FM2673, Canyon Lake, TX 78133",Fri : 6am-11pm <br> Sat : 6am-11pm <br> Sun : 6am-11pm <br> Mon : 6am-11pm <br> Tue : 6am-11pm <br> Wed : 6am-12am <br> Thu : 6am-12am,TX 78133,"McDonald's, Canyon Lake, TX 78133"
McDonald's,Childress,"<a href=""tel:+1 940-937-2936"" rel=""nofollow"">+1 940-937-2936</a>","<a href=""https://www.google.com/maps?cid=3210959737560130009"" target=""_blank"" rel=""nofollow"">Get Directions</a>","2111 Ave F NW US 287, Childress, TX 79201",Fri : 5am-11pm <br> Sat : 5am-11pm <br> Sun : 6am-10pm <br> Mon : 6am-10pm <br> Tue : 6am-10pm <br> Wed : 6am-10pm <br> Thu : 6am-10pm,TX 79201,"McDonald's, Childress, TX 79201"
McDonald's,Beaumont,"<a href=""tel:+1 409-898-3552"" rel=""nofollow"">+1 409-898-3552</a>","<a href=""https://www.google.com/maps?cid=3235307794146276712"" target=""_blank"" rel=""nofollow"">Get Directions</a>","4515 Dowlen Rd, Beaumont, TX 77706",Fri : 5am-12am <br> Sat : 5am-12am <br> Sun : 5am-12am <br> Mon : 5am-12am <br> Tue : 5am-12am <br> Wed : 5am-12am <br> Thu : 5am-12am,TX 77706,"McDonald's, Beaumont, TX 77706"
McDonald's,Grand Prairie,"<a href=""tel:+1 972-266-3811"" rel=""nofollow"">+1 972-266-3811</a>","<a href=""https://www.google.com/maps?cid=12819539402875816369"" target=""_blank"" rel=""nofollow"">Get Directions</a>","813 E Main St, Grand Prairie, TX 75050",Fri : open 24 hours <br> Sat : open 24 hours <br> Sun : open 24 hours <br> Mon : open 24 hours <br> Tue : open 24 hours <br> Wed : open 24 hours <br> Thu : open 24 hours,TX 75050,"McDonald's, Grand Prairie, TX 75050"
McDonald's,Brownwood,"<a href=""tel:+1 325-641-1408"" rel=""nofollow"">+1 325-641-1408</a>","<a href=""https://www.google.com/maps?cid=8461730523093918227"" target=""_blank"" rel=""nofollow"">Get Directions</a>","204 E Commerce St, Brownwood, TX 76801",Fri : 4am-3am <br> Sat : 4am-3am <br> Sun : 4am-1am <br> Mon : 5am-12am <br> Tue : 4am-1am <br> Wed : 4am-1am <br> Thu : 4am-1am,TX 76801,"McDonald's, Brownwood, TX 76801"
McDonald's,Irving,"<a href=""tel:+1 972-717-3141"" rel=""nofollow"">+1 972-717-3141</a>","<a href=""https://www.google.com/maps?cid=16929773390547337028"" target=""_blank"" rel=""nofollow"">Get Directions</a>","4959 N O'Connor Rd, Irving, TX 75038",Fri : 5 : 30am-11pm <br> Sat : 5 : 30am-11pm <br> Sun : 5 : 30am-11pm <br> Mon : 5 : 30am-11pm <br> Tue : 5 : 30am-11pm <br> Wed : 5 : 30am-11pm <br> Thu : 5 : 30am-11pm,TX 75038,"McDonald's, Irving, TX 75038"
McDonald's,Cleburne,"<a href=""tel:+1 817-202-9013"" rel=""nofollow"">+1 817-202-9013</a>","<a href=""https://www.google.com/maps?cid=13842263208052645409"" target=""_blank"" rel=""nofollow"">Get Directions</a>","2206 N Main St, Cleburne, TX 76031",Fri : open 24 hours <br> Sat : open 24 hours <br> Sun : open 24 hours <br> Mon : open 24 hours <br> Tue : open 24 hours <br> Wed : open 24 hours <br> Thu : open 24 hours,TX 76031,"McDonald's, Cleburne, TX 76031"
McDonald's,Harker Heights,"<a href=""tel:+1 254-690-7050"" rel=""nofollow"">+1 254-690-7050</a>","<a href=""https://www.google.com/maps?cid=786003883723513142"" target=""_blank"" rel=""nofollow"">Get Directions</a>","630 Indian Trail, Harker Heights, TX 76548",Fri : 5am-12am <br> Sat : open 24 hours <br> Sun : 4am-12am <br> Mon : 5am-12am <br> Tue : 5am-12am <br> Wed : 5am-12am <br> Thu : 5am-12am,TX 76548,"McDonald's, Harker Heights, TX 76548"
McDonald's,Stephenville,"<a href=""tel:+1 254-965-3777"" rel=""nofollow"">+1 254-965-3777</a>","<a href=""https://www.google.com/maps?cid=18404144933013344497"" target=""_blank"" rel=""nofollow"">Get Directions</a>","1416 W Washington St, Stephenville, TX 76401",Fri : open 24 hours <br> Sat : open 24 hours <br> Sun : open 24 hours <br> Mon : open 24 hours <br> Tue : open 24 hours <br> Wed : open 24 hours <br> Thu : open 24 hours,TX 76401,"McDonald's, Stephenville, TX 76401"
McDonald's,Killeen,"<a href=""tel:+1 254-634-7300"" rel=""nofollow"">+1 254-634-7300</a>","<a href=""https://www.google.com/maps?cid=16264880636303263802"" target=""_blank"" rel=""nofollow"">Get Directions</a>","109 E Rancier Ave, Killeen, TX 76541",Fri : open 24 hours <br> Sat : open 24 hours <br> Sun : open 24 hours <br> Mon : open 24 hours <br> Tue : open 24 hours <br> Wed : open 24 hours <br> Thu : open 24 hours,TX 76541,"McDonald's, Killeen, TX 76541"
McDonald's,San Angelo,"<a href=""tel:+1 325-227-8504"" rel=""nofollow"">+1 325-227-8504</a>","<a href=""https://www.google.com/maps?cid=8765873856995243899"" target=""_blank"" rel=""nofollow"">Get Directions</a>","520 N Bryant Blvd, San Angelo, TX 76903",Fri : open 24 hours <br> Sat : open 24 hours <br> Sun : open 24 hours <br> Mon : open 24 hours <br> Tue : open 24 hours <br> Wed : open 24 hours <br> Thu : open 24 hours,TX 76903,"McDonald's, San Angelo, TX 76903"
McDonald's,Austin,"<a href=""tel:+1 512-837-8616"" rel=""nofollow"">+1 512-837-8616</a>","<a href=""https://www.google.com/maps?cid=16877765332209687248"" target=""_blank"" rel=""nofollow"">Get Directions</a>","2608 W Braker Ln W, Austin, TX 78758",Fri : 5am-12am <br> Sat : 5am-12am <br> Sun : 5am-12am <br> Mon : 5am-12am <br> Tue : 5am-12am <br> Wed : 5am-12am <br> Thu : 5am-12am,TX 78758,"McDonald's, Austin, TX 78758"
McDonald's,North Richland Hills,"<a href=""tel:+1 817-281-8888"" rel=""nofollow"">+1 817-281-8888</a>","<a href=""https://www.google.com/maps?cid=671258800973313122"" target=""_blank"" rel=""nofollow"">Get Directions</a>","5140 Rufe Snow Dr, North Richland Hills, TX 76180",Fri : open 24 hours <br> Sat : open 24 hours <br> Sun : open 24 hours <br> Mon : open 24 hours <br> Tue : open 24 hours <br> Wed : open 24 hours <br> Thu : open 24 hours,TX 76180,"McDonald's, North Richland Hills, TX 76180"
McDonald's,Irving,"<a href=""tel:+1 972-438-4883"" rel=""nofollow"">+1 972-438-4883</a>","<a href=""https://www.google.com/maps?cid=957013676558804251"" target=""_blank"" rel=""nofollow"">Get Directions</a>","1308 E Airport Fwy, Irving, TX 75062",Fri : open 24 hours <br> Sat : open 24 hours <br> Sun : open 24 hours <br> Mon : open 24 hours <br> Tue : open 24 hours <br> Wed : open 24 hours <br> Thu : open 24 hours,TX 75062,"McDonald's, Irving, TX 75062"
McDonald's,Eastland,"<a href=""tel:+1 254-629-3613"" rel=""nofollow"">+1 254-629-3613</a>","<a href=""https://www.google.com/maps?cid=17400797024808418744"" target=""_blank"" rel=""nofollow"">Get Directions</a>","1490 E Main St, Eastland, TX 76448",Fri : 5am-12am <br> Sat : open 24 hours <br> Sun : 4am-12am <br> Mon : 5am-12am <br> Tue : 5am-12am <br> Wed : 5am-12am <br> Thu : 5am-12am,TX 76448,"McDonald's, Eastland, TX 76448"
McDonald's,Dallas,"<a href=""tel:+1 214-827-6800"" rel=""nofollow"">+1 214-827-6800</a>","<a href=""https://www.google.com/maps?cid=3703891244392805613"" target=""_blank"" rel=""nofollow"">Get Directions</a>","5403 Ross Ave, Dallas, TX 75206",Fri : open 24 hours <br> Sat : open 24 hours <br> Sun : open 24 hours <br> Mon : open 24 hours <br> Tue : open 24 hours <br> Wed : open 24 hours <br> Thu : open 24 hours,TX 75206,"McDonald's, Dallas, TX 75206"
McDonald's,Cedar Park,"<a href=""tel:+1 512-336-1999"" rel=""nofollow"">+1 512-336-1999</a>","<a href=""https://www.google.com/maps?cid=10839597960071394577"" target=""_blank"" rel=""nofollow"">Get Directions</a>","1410 Cypress Creek Road, Cedar Park, TX 78613",Fri : 5am-10pm <br> Sat : 5am-10pm <br> Sun : 5am-10pm <br> Mon : 5am-10pm <br> Tue : 5am-10pm <br> Wed : 5am-10pm <br> Thu : 5am-10pm,TX 78613,"McDonald's, Cedar Park, TX 78613"
McDonald's,Azle,"<a href=""tel:+1 817-444-1696"" rel=""nofollow"">+1 817-444-1696</a>","<a href=""https://www.google.com/maps?cid=6116268101657382719"" target=""_blank"" rel=""nofollow"">Get Directions</a>","597 NW Pkwy St, Azle, TX 76020",Fri : open 24 hours <br> Sat : open 24 hours <br> Sun : open 24 hours <br> Mon : open 24 hours <br> Tue : open 24 hours <br> Wed : open 24 hours <br> Thu : open 24 hours,TX 76020,"McDonald's, Azle, TX 76020"
McDonald's,Roma,"<a href=""tel:+1 956-849-1045"" rel=""nofollow"">+1 956-849-1045</a>","<a href=""https://www.google.com/maps?cid=7844210466307406789"" target=""_blank"" rel=""nofollow"">Get Directions</a>","104 E Grant St, Roma, TX 78584",Fri : open 24 hours <br> Sat : open 24 hours <br> Sun : open 24 hours <br> Mon : open 24 hours <br> Tue : open 24 hours <br> Wed : open 24 hours <br> Thu : open 24 hours,TX 78584,"McDonald's, Roma, TX 78584"
McDonald's,Waco,"<a href=""tel:+1 254-666-5743"" rel=""nofollow"">+1 254-666-5743</a>","<a href=""https://www.google.com/maps?cid=13956092535174746301"" target=""_blank"" rel=""nofollow"">Get Directions</a>","913 Hewitt Dr, Waco, TX 76712",Fri : 5am-12am <br> Sat : 5am-12am <br> Sun : 5am-11pm <br> Mon : 5am-11pm <br> Tue : 5am-11pm <br> Wed : 5am-11pm <br> Thu : 5am-11pm,TX 76712,"McDonald's, Waco, TX 76712"
McDonald's,Jarrell,"<a href=""tel:+1 512-746-2180"" rel=""nofollow"">+1 512-746-2180</a>","<a href=""https://www.google.com/maps?cid=16022935309691283963"" target=""_blank"" rel=""nofollow"">Get Directions</a>","11640 N I-35 N, Jarrell, TX 76537",Fri : 5am-12am <br> Sat : 5am-12am <br> Sun : 5am-11pm <br> Mon : 5am-11pm <br> Tue : 5am-11pm <br> Wed : 5am-11pm <br> Thu : 5am-11pm,TX 76537,"McDonald's, Jarrell, TX 76537"
McDonald's,Temple,"<a href=""tel:+1 254-773-3000"" rel=""nofollow"">+1 254-773-3000</a>","<a href=""https://www.google.com/maps?cid=4713812967464543410"" target=""_blank"" rel=""nofollow"">Get Directions</a>","3814 S General Bruce Dr, Temple, TX 76502",Fri : 6am-11pm <br> Sat : 6am-11pm <br> Sun : 6am-11pm <br> Mon : 6am-12am <br> Tue : 6am-11pm <br> Wed : 6am-11pm <br> Thu : 6am-11pm,TX 76502,"McDonald's, Temple, TX 76502"
McDonald's,Abilene,"<a href=""tel:+1 325-673-6564"" rel=""nofollow"">+1 325-673-6564</a>","<a href=""https://www.google.com/maps?cid=12087160490630313785"" target=""_blank"" rel=""nofollow"">Get Directions</a>","3602 N 1st St, Abilene, TX 79603",Fri : 6am-2am <br> Sat : 6am-2am <br> Sun : 6am-1am <br> Mon : 6am-1am <br> Tue : 6am-1am <br> Wed : 6am-1am <br> Thu : 6am-1am,TX 79603,"McDonald's, Abilene, TX 79603"
McDonald's,Benbrook,"<a href=""tel:+1 817-249-2773"" rel=""nofollow"">+1 817-249-2773</a>","<a href=""https://www.google.com/maps?cid=5175600517048537855"" target=""_blank"" rel=""nofollow"">Get Directions</a>","8516 Hwy 377 S, Benbrook, TX 76126",Fri : 5am-12am <br> Sat : 5am-12am <br> Sun : 5am-12am <br> Mon : 5am-12am <br> Tue : 5am-12am <br> Wed : 5am-12am <br> Thu : 5am-12am,TX 76126,"McDonald's, Benbrook, TX 76126"
McDonald's,Fort Worth,"<a href=""tel:+1 817-921-2202"" rel=""nofollow"">+1 817-921-2202</a>","<a href=""https://www.google.com/maps?cid=7799884962347549811"" target=""_blank"" rel=""nofollow"">Get Directions</a>","3012 W Berry St, Fort Worth, TX 76109",Fri : 5am-1am <br> Sat : 5am-1am <br> Sun : 6am-12am <br> Mon : 5am-12am <br> Tue : 5am-12am <br> Wed : 5am-12am <br> Thu : 5am-12am,TX 76109,"McDonald's, Fort Worth, TX 76109"
McDonald's,Beaumont,"<a href=""tel:+1 409-866-7272"" rel=""nofollow"">+1 409-866-7272</a>","<a href=""https://www.google.com/maps?cid=1946427824896627804"" target=""_blank"" rel=""nofollow"">Get Directions</a>","6380 Phelan Blvd, Beaumont, TX 77706",Fri : open 24 hours <br> Sat : open 24 hours <br> Sun : open 24 hours <br> Mon : open 24 hours <br> Tue : open 24 hours <br> Wed : open 24 hours <br> Thu : open 24 hours,TX 77706,"McDonald's, Beaumont, TX 77706"
McDonald's,Midland,"<a href=""tel:+1 432-687-1705"" rel=""nofollow"">+1 432-687-1705</a>","<a href=""https://www.google.com/maps?cid=8180777105325414393"" target=""_blank"" rel=""nofollow"">Get Directions</a>","2307 Rankin Hwy, Midland, TX 79701",Fri : 5am-1am <br> Sat : 5am-1am <br> Sun : 5am-12am <br> Mon : 5am-12am <br> Tue : 5am-12am <br> Wed : 5am-12am <br> Thu : 5am-12am,TX 79701,"McDonald's, Midland, TX 79701"
McDonald's,Houston,"<a href=""tel:+1 281-370-0000"" rel=""nofollow"">+1 281-370-0000</a>","<a href=""https://www.google.com/maps?cid=8372830944305999622"" target=""_blank"" rel=""nofollow"">Get Directions</a>","21189 Tomball Pkwy, Houston, TX 77070",Fri : 4 : 30am-1am <br> Sat : 4 : 30am-1am <br> Sun : 4 : 30am-12am <br> Mon : 4 : 30am-12am <br> Tue : 4 : 30am-12am <br> Wed : 4 : 30am-12am <br> Thu : 4 : 30am-12am,TX 77070,"McDonald's, Houston, TX 77070"
McDonald's,Mt Pleasant,"<a href=""tel:+1 903-572-8393"" rel=""nofollow"">+1 903-572-8393</a>","<a href=""https://www.google.com/maps?cid=3684955457320647147"" target=""_blank"" rel=""nofollow"">Get Directions</a>","102 Cedar St, Mt Pleasant, TX 75455",Fri : 5am-12am <br> Sat : 5am-12am <br> Sun : 5am-11pm <br> Mon : 5am-11pm <br> Tue : 5am-11pm <br> Wed : 5am-11pm <br> Thu : 5am-11pm,TX 75455,"McDonald's, Mt Pleasant, TX 75455"
McDonald's,U.S. Hwy 190,"<a href=""tel:+1 254-699-1659"" rel=""nofollow"">+1 254-699-1659</a>","<a href=""https://www.google.com/maps?cid=5083231171771750134"" target=""_blank"" rel=""nofollow"">Get Directions</a>","2102 Business, U.S. Hwy 190, Killeen, TX 76541",Fri : 5am-12am <br> Sat : open 24 hours <br> Sun : 4am-12am <br> Mon : 5am-12am <br> Tue : 5am-12am <br> Wed : 5am-12am <br> Thu : 5am-12am,,"McDonald's, U.S. Hwy 190, "
McDonald's,Killeen,"<a href=""tel:+1 254-200-0650"" rel=""nofollow"">+1 254-200-0650</a>","<a href=""https://www.google.com/maps?cid=14875681815708929410"" target=""_blank"" rel=""nofollow"">Get Directions</a>","4622 S Fort Hood St, Killeen, TX 76542",Fri : open 24 hours <br> Sat : open 24 hours <br> Sun : open 24 hours <br> Mon : open 24 hours <br> Tue : open 24 hours <br> Wed : open 24 hours <br> Thu : open 24 hours,TX 76542,"McDonald's, Killeen, TX 76542"
McDonald's,Keller,"<a href=""tel:+1 817-741-1811"" rel=""nofollow"">+1 817-741-1811</a>","<a href=""https://www.google.com/maps?cid=8653805201023485398"" target=""_blank"" rel=""nofollow"">Get Directions</a>","12540 N Beach St, Keller, TX 76248",Fri : 5am-1am <br> Sat : 5am-1am <br> Sun : 6am-1am <br> Mon : 5am-1am <br> Tue : 5am-1am <br> Wed : 5am-1am <br> Thu : 5am-1am,TX 76248,"McDonald's, Keller, TX 76248"
McDonald's,Midland,"<a href=""tel:+1 432-520-3044"" rel=""nofollow"">+1 432-520-3044</a>","<a href=""https://www.google.com/maps?cid=6798001187019925077"" target=""_blank"" rel=""nofollow"">Get Directions</a>","1111 Andrews Hwy, Midland, TX 79701",Fri : 5am-1am <br> Sat : 5am-1am <br> Sun : 5am-12am <br> Mon : 5am-12am <br> Tue : 5am-12am <br> Wed : 5am-12am <br> Thu : 5am-12am,TX 79701,"McDonald's, Midland, TX 79701"
McDonald's,Clute,"<a href=""tel:+1 979-297-3824"" rel=""nofollow"">+1 979-297-3824</a>","<a href=""https://www.google.com/maps?cid=5593545772615153670"" target=""_blank"" rel=""nofollow"">Get Directions</a>","1028 Dixie Dr, Clute, TX 77531",Fri : open 24 hours <br> Sat : open 24 hours <br> Sun : open 24 hours <br> Mon : open 24 hours <br> Tue : open 24 hours <br> Wed : open 24 hours <br> Thu : open 24 hours,TX 77531,"McDonald's, Clute, TX 77531"
McDonald's,Waskom,"<a href=""tel:+1 903-687-2445"" rel=""nofollow"">+1 903-687-2445</a>","<a href=""https://www.google.com/maps?cid=12599516857934189037"" target=""_blank"" rel=""nofollow"">Get Directions</a>","510 North I-20 East, Waskom, TX 75692",Fri : 6am-11pm <br> Sat : 6am-11pm <br> Sun : 6am-11pm <br> Mon : 6am-11pm <br> Tue : 6am-11pm <br> Wed : 6am-11pm <br> Thu : 6am-11pm,TX 75692,"McDonald's, Waskom, TX 75692"
McDonald's,Garland,"<a href=""tel:+1 972-530-3430"" rel=""nofollow"">+1 972-530-3430</a>","<a href=""https://www.google.com/maps?cid=16754121308975985349"" target=""_blank"" rel=""nofollow"">Get Directions</a>","190 N Shiloh Rd, Garland, TX 75044",Fri : 4 : 30am-1am <br> Sat : 4 : 30am-1am <br> Sun : 4 : 30am-12am <br> Mon : 4 : 30am-12am <br> Tue : 4 : 30am-12am <br> Wed : 4 : 30am-12am <br> Thu : 4 : 30am-12am,TX 75044,"McDonald's, Garland, TX 75044"
McDonald's,Fort Stockton,"<a href=""tel:+1 432-336-9705"" rel=""nofollow"">+1 432-336-9705</a>","<a href=""https://www.google.com/maps?cid=6547045015835030990"" target=""_blank"" rel=""nofollow"">Get Directions</a>","1500 US Hwy 285, Fort Stockton, TX 79735",Fri : 6am-11pm <br> Sat : 6am-11pm <br> Sun : 6am-11pm <br> Mon : 6am-11pm <br> Tue : 6am-11pm <br> Wed : 6am-11pm <br> Thu : 6am-11pm,TX 79735,"McDonald's, Fort Stockton, TX 79735"
McDonald's,Killeen,"<a href=""tel:+1 254-501-9165"" rel=""nofollow"">+1 254-501-9165</a>","<a href=""https://www.google.com/maps?cid=9157185330851396882"" target=""_blank"" rel=""nofollow"">Get Directions</a>","3700 Clear Creek Rd, Killeen, TX 76549",Fri : open 24 hours <br> Sat : open 24 hours <br> Sun : open 24 hours <br> Mon : open 24 hours <br> Tue : open 24 hours <br> Wed : open 24 hours <br> Thu : open 24 hours,TX 76549,"McDonald's, Killeen, TX 76549"
McDonald's,Austin,"<a href=""tel:+1 512-837-9336"" rel=""nofollow"">+1 512-837-9336</a>","<a href=""https://www.google.com/maps?cid=9201401710184133602"" target=""_blank"" rel=""nofollow"">Get Directions</a>","1024 E Anderson Ln, Austin, TX 78752",Fri : 5am-11pm <br> Sat : 5am-11pm <br> Sun : 5am-11pm <br> Mon : 5am-11pm <br> Tue : 5am-11pm <br> Wed : 5am-11pm <br> Thu : 5am-11pm,TX 78752,"McDonald's, Austin, TX 78752"
McDonald's,Austin,"<a href=""tel:+1 512-996-9449"" rel=""nofollow"">+1 512-996-9449</a>","<a href=""https://www.google.com/maps?cid=12641874280195450454"" target=""_blank"" rel=""nofollow"">Get Directions</a>","7409 N FM 620, Austin, TX 78726",Fri : 5 : 30am-2am <br> Sat : 5 : 30am-1am <br> Sun : 5 : 30am-1am <br> Mon : 5 : 30am-1am <br> Tue : 5 : 30am-1am <br> Wed : 5 : 30am-1am <br> Thu : 5 : 30am-2am,TX 78726,"McDonald's, Austin, TX 78726"
McDonald's,Austin,"<a href=""tel:+1 512-335-8065"" rel=""nofollow"">+1 512-335-8065</a>","<a href=""https://www.google.com/maps?cid=14083023986535117911"" target=""_blank"" rel=""nofollow"">Get Directions</a>","13749 N US Hwy 183, Austin, TX 78750",Fri : open 24 hours <br> Sat : open 24 hours <br> Sun : open 24 hours <br> Mon : open 24 hours <br> Tue : open 24 hours <br> Wed : open 24 hours <br> Thu : open 24 hours,TX 78750,"McDonald's, Austin, TX 78750"
McDonald's,Plano,"<a href=""tel:+1 972-250-2349"" rel=""nofollow"">+1 972-250-2349</a>","<a href=""https://www.google.com/maps?cid=198587821143427170"" target=""_blank"" rel=""nofollow"">Get Directions</a>","6220 W Park Blvd, Plano, TX 75093",Fri : 5am-11pm <br> Sat : 6am-11pm <br> Sun : 6am-11pm <br> Mon : 5am-11pm <br> Tue : 5am-11pm <br> Wed : 5am-11pm <br> Thu : 5am-11pm,TX 75093,"McDonald's, Plano, TX 75093"
McDonald's,Brownfield,"<a href=""tel:+1 806-637-8929"" rel=""nofollow"">+1 806-637-8929</a>","<a href=""https://www.google.com/maps?cid=14861693655669687922"" target=""_blank"" rel=""nofollow"">Get Directions</a>","304 Lubbock Rd, Brownfield, TX 79316",Fri : open 24 hours <br> Sat : open 24 hours <br> Sun : 4am-12am <br> Mon : 4am-12am <br> Tue : 4am-12am <br> Wed : 4am-12am <br> Thu : 4am-12am,TX 79316,"McDonald's, Brownfield, TX 79316"
McDonald's,Georgetown,"<a href=""tel:+1 512-863-9922"" rel=""nofollow"">+1 512-863-9922</a>","<a href=""https://www.google.com/maps?cid=11137628686112025991"" target=""_blank"" rel=""nofollow"">Get Directions</a>","4418 Williams Dr, Georgetown, TX 78628",Fri : 5am-12am <br> Sat : 5am-12am <br> Sun : 5am-12am <br> Mon : 5am-12am <br> Tue : 5am-12am <br> Wed : 5am-1am <br> Thu : 5am-1am,TX 78628,"McDonald's, Georgetown, TX 78628"
McDonald's,Granbury,"<a href=""tel:+1 817-573-0206"" rel=""nofollow"">+1 817-573-0206</a>","<a href=""https://www.google.com/maps?cid=17980018708666097433"" target=""_blank"" rel=""nofollow"">Get Directions</a>","1101 S Morgan St, Granbury, TX 76048",Fri : open 24 hours <br> Sat : open 24 hours <br> Sun : open 24 hours <br> Mon : open 24 hours <br> Tue : open 24 hours <br> Wed : open 24 hours <br> Thu : open 24 hours,TX 76048,"McDonald's, Granbury, TX 76048"
McDonald's,Kenedy,"<a href=""tel:+1 830-583-3700"" rel=""nofollow"">+1 830-583-3700</a>","<a href=""https://www.google.com/maps?cid=14147800949929639441"" target=""_blank"" rel=""nofollow"">Get Directions</a>","109 N Sunset Strip St, Kenedy, TX 78119",Fri : 5am-2am <br> Sat : 5am-2am <br> Sun : 5am-2am <br> Mon : 5am-2am <br> Tue : 5am-2am <br> Wed : 5am-2am <br> Thu : 5am-2am,TX 78119,"McDonald's, Kenedy, TX 78119"
McDonald's,Dripping Springs,"<a href=""tel:+1 512-858-9920"" rel=""nofollow"">+1 512-858-9920</a>","<a href=""https://www.google.com/maps?cid=13022371859320179275"" target=""_blank"" rel=""nofollow"">Get Directions</a>","333 E Highway 290, Dripping Springs, TX 78620",Fri : 5am-10pm <br> Sat : 5am-10pm <br> Sun : 5am-10pm <br> Mon : 5am-10pm <br> Tue : 5am-10pm <br> Wed : 5am-10pm <br> Thu : 5am-10pm,TX 78620,"McDonald's, Dripping Springs, TX 78620"
McDonald's,Fort Worth,"<a href=""tel:+1 817-801-3062"" rel=""nofollow"">+1 817-801-3062</a>","<a href=""https://www.google.com/maps?cid=10274538832873994972"" target=""_blank"" rel=""nofollow"">Get Directions</a>","1420 Eastchase Pkwy, Fort Worth, TX 76112",Fri : 5am-12am <br> Sat : open 24 hours <br> Sun : 4am-12am <br> Mon : 5am-12am <br> Tue : 5am-12am <br> Wed : 5am-12am <br> Thu : 5am-12am,TX 76112,"McDonald's, Fort Worth, TX 76112"
McDonald's,Plano,"<a href=""tel:+1 972-596-6123"" rel=""nofollow"">+1 972-596-6123</a>","<a href=""https://www.google.com/maps?cid=1264134770207418743"" target=""_blank"" rel=""nofollow"">Get Directions</a>","4925 W Park Blvd, Plano, TX 75075",Fri : 5am-12am <br> Sat : 5am-12am <br> Sun : 5 : 30am-12am <br> Mon : 5am-12am <br> Tue : 5am-12am <br> Wed : 5am-12am <br> Thu : 5am-12am,TX 75075,"McDonald's, Plano, TX 75075"
McDonald's,Kerrville,"<a href=""tel:+1 830-895-7707"" rel=""nofollow"">+1 830-895-7707</a>","<a href=""https://www.google.com/maps?cid=14623513288989149412"" target=""_blank"" rel=""nofollow"">Get Directions</a>","1308 Junction Hwy, Kerrville, TX 78028",Fri : 6am-11pm <br> Sat : 6am-11pm <br> Sun : 6am-11pm <br> Mon : 6am-11pm <br> Tue : 6am-11pm <br> Wed : 6am-11pm <br> Thu : 6am-11pm,TX 78028,"McDonald's, Kerrville, TX 78028"
McDonald's,Temple,"<a href=""tel:+1 254-771-9901"" rel=""nofollow"">+1 254-771-9901</a>","<a href=""https://www.google.com/maps?cid=1702262821779846406"" target=""_blank"" rel=""nofollow"">Get Directions</a>","6811 W Adams Ave, Temple, TX 76502",Fri : 6am-12am <br> Sat : 6am-12am <br> Sun : 6am-12am <br> Mon : 6am-12am <br> Tue : 6am-12am <br> Wed : 6am-12am <br> Thu : 6am-12am,TX 76502,"McDonald's, Temple, TX 76502"
McDonald's,Temple,"<a href=""tel:+1 254-778-0314"" rel=""nofollow"">+1 254-778-0314</a>","<a href=""https://www.google.com/maps?cid=14090189097065253879"" target=""_blank"" rel=""nofollow"">Get Directions</a>","1601 W Adams Ave, Temple, TX 76501",Fri : 6am-12am <br> Sat : 6am-12am <br> Sun : 6am-12am <br> Mon : 6am-12am <br> Tue : 6am-12am <br> Wed : 6am-12am <br> Thu : 6am-12am,TX 76501,"McDonald's, Temple, TX 76501"
McDonald's,Austin,"<a href=""tel:+1 512-892-8780"" rel=""nofollow"">+1 512-892-8780</a>","<a href=""https://www.google.com/maps?cid=7583915454773750211"" target=""_blank"" rel=""nofollow"">Get Directions</a>","5017 E Hwy 290, Austin, TX 78735",Fri : 7am-10pm <br> Sat : 7am-10pm <br> Sun : 7am-10pm <br> Mon : 7am-10pm <br> Tue : 7am-10pm <br> Wed : 7am-10pm <br> Thu : 7am-10pm,TX 78735,"McDonald's, Austin, TX 78735"
McDonald's,Dallas,"<a href=""tel:+1 972-733-4494"" rel=""nofollow"">+1 972-733-4494</a>","<a href=""https://www.google.com/maps?cid=11557559822923912565"" target=""_blank"" rel=""nofollow"">Get Directions</a>","17606 Midway Rd, Dallas, TX 75287",Fri : open 24 hours <br> Sat : open 24 hours <br> Sun : open 24 hours <br> Mon : open 24 hours <br> Tue : open 24 hours <br> Wed : open 24 hours <br> Thu : open 24 hours,TX 75287,"McDonald's, Dallas, TX 75287"
McDonald's,Carrollton,"<a href=""tel:+1 972-492-8727"" rel=""nofollow"">+1 972-492-8727</a>","<a href=""https://www.google.com/maps?cid=16109265408797970575"" target=""_blank"" rel=""nofollow"">Get Directions</a>","1050 W Frankford Rd, Carrollton, TX 75007",Thu : 6am-4am <br> Fri : 6am-4am <br> Sat : 6am-4am <br> Sun : 6am-11pm <br> Mon : 6am-11pm <br> Tue : 6am-11pm <br> Wed : 6am-11pm,TX 75007,"McDonald's, Carrollton, TX 75007"
McDonald's,Dallas,"<a href=""tel:+1 214-522-0697"" rel=""nofollow"">+1 214-522-0697</a>","<a href=""https://www.google.com/maps?cid=13275587942724364623"" target=""_blank"" rel=""nofollow"">Get Directions</a>","4439 Lemmon Ave, Dallas, TX 75219",Fri : open 24 hours <br> Sat : open 24 hours <br> Sun : open 24 hours <br> Mon : open 24 hours <br> Tue : open 24 hours <br> Wed : open 24 hours <br> Thu : open 24 hours,TX 75219,"McDonald's, Dallas, TX 75219"
McDonald's,Irving,"<a href=""tel:+1 972-252-8508"" rel=""nofollow"">+1 972-252-8508</a>","<a href=""https://www.google.com/maps?cid=17404880134665440460"" target=""_blank"" rel=""nofollow"">Get Directions</a>","2410 N Story Rd, Irving, TX 75062",Fri : open 24 hours <br> Sat : open 24 hours <br> Sun : open 24 hours <br> Mon : open 24 hours <br> Tue : open 24 hours <br> Wed : open 24 hours <br> Thu : open 24 hours,TX 75062,"McDonald's, Irving, TX 75062"
McDonald's,Killeen,"<a href=""tel:+1 254-526-3104"" rel=""nofollow"">+1 254-526-3104</a>","<a href=""https://www.google.com/maps?cid=9166690421234419955"" target=""_blank"" rel=""nofollow"">Get Directions</a>","1105 S Fort Hood St, Killeen, TX 76541",Fri : open 24 hours <br> Sat : open 24 hours <br> Sun : open 24 hours <br> Mon : open 24 hours <br> Tue : open 24 hours <br> Wed : open 24 hours <br> Thu : open 24 hours,TX 76541,"McDonald's, Killeen, TX 76541"
McDonald's,Fort Worth,"<a href=""tel:+1 817-834-2179"" rel=""nofollow"">+1 817-834-2179</a>","<a href=""https://www.google.com/maps?cid=4437428288938292634"" target=""_blank"" rel=""nofollow"">Get Directions</a>","3901 Airport Fwy, Fort Worth, TX 76111",Fri : open 24 hours <br> Sat : open 24 hours <br> Sun : open 24 hours <br> Mon : open 24 hours <br> Tue : open 24 hours <br> Wed : open 24 hours <br> Thu : open 24 hours,TX 76111,"McDonald's, Fort Worth, TX 76111"
McDonald's,Dallas,"<a href=""tel:+1 214-330-0795"" rel=""nofollow"">+1 214-330-0795</a>","<a href=""https://www.google.com/maps?cid=17135196461107903034"" target=""_blank"" rel=""nofollow"">Get Directions</a>","2747 Fort Worth Ave, Dallas, TX 75211",Fri : 6am-12am <br> Sat : open 24 hours <br> Sun : 4am-11pm <br> Mon : 6am-11pm <br> Tue : 6am-11pm <br> Wed : 6am-11pm <br> Thu : 6am-11pm,TX 75211,"McDonald's, Dallas, TX 75211"
McDonald's,Fort Worth,"<a href=""tel:+1 817-293-1672"" rel=""nofollow"">+1 817-293-1672</a>","<a href=""https://www.google.com/maps?cid=9219738250773940862"" target=""_blank"" rel=""nofollow"">Get Directions</a>","8651 South Fwy, Fort Worth, TX 76140",Fri : open 24 hours <br> Sat : open 24 hours <br> Sun : open 24 hours <br> Mon : open 24 hours <br> Tue : open 24 hours <br> Wed : open 24 hours <br> Thu : open 24 hours,TX 76140,"McDonald's, Fort Worth, TX 76140"
McDonald's,Odessa,"<a href=""tel:+1 432-362-0283"" rel=""nofollow"">+1 432-362-0283</a>","<a href=""https://www.google.com/maps?cid=16119180359796006693"" target=""_blank"" rel=""nofollow"">Get Directions</a>","5900 E Interstate 20, Odessa, TX 79761",Fri : open 24 hours <br> Sat : open 24 hours <br> Sun : open 24 hours <br> Mon : open 24 hours <br> Tue : open 24 hours <br> Wed : open 24 hours <br> Thu : open 24 hours,TX 79761,"McDonald's, Odessa, TX 79761"
McDonald's,Kerrville,"<a href=""tel:+1 830-792-5575"" rel=""nofollow"">+1 830-792-5575</a>","<a href=""https://www.google.com/maps?cid=17377194695062499799"" target=""_blank"" rel=""nofollow"">Get Directions</a>","2128 Sidney Baker St, Kerrville, TX 78028",Fri : 6am-10pm <br> Sat : 6am-10pm <br> Sun : 6am-10pm <br> Mon : 6am-10pm <br> Tue : 6am-10pm <br> Wed : 6am-10pm <br> Thu : 6am-10pm,TX 78028,"McDonald's, Kerrville, TX 78028"
McDonald's,Fort Worth,"<a href=""tel:+1 817-921-6315"" rel=""nofollow"">+1 817-921-6315</a>","<a href=""https://www.google.com/maps?cid=1818661887672015056"" target=""_blank"" rel=""nofollow"">Get Directions</a>","700 E Berry St, Fort Worth, TX 76110",Fri : 5am-12am <br> Sat : 5am-12am <br> Sun : 6am-12am <br> Mon : 5am-12am <br> Tue : 5am-12am <br> Wed : 5am-12am <br> Thu : 5am-12am,TX 76110,"McDonald's, Fort Worth, TX 76110"
McDonald's,Austin,"<a href=""tel:+1 512-444-9229"" rel=""nofollow"">+1 512-444-9229</a>","<a href=""https://www.google.com/maps?cid=16621589155332527133"" target=""_blank"" rel=""nofollow"">Get Directions</a>","2426 E Riverside Dr, Austin, TX 78741",Fri : open 24 hours <br> Sat : open 24 hours <br> Sun : open 24 hours <br> Mon : open 24 hours <br> Tue : open 24 hours <br> Wed : open 24 hours <br> Thu : open 24 hours,TX 78741,"McDonald's, Austin, TX 78741"
McDonald's,Leander,"<a href=""tel:+1 512-259-9055"" rel=""nofollow"">+1 512-259-9055</a>","<a href=""https://www.google.com/maps?cid=1694826546572900435"" target=""_blank"" rel=""nofollow"">Get Directions</a>","1445 N US Hwy 183, Leander, TX 78641",Fri : 5am-12am <br> Sat : 5am-12am <br> Sun : 5am-12am <br> Mon : 5am-12am <br> Tue : 5am-12am <br> Wed : 5am-12am <br> Thu : 5am-12am,TX 78641,"McDonald's, Leander, TX 78641"
McDonald's,Cleburne,"<a href=""tel:+1 817-558-0604"" rel=""nofollow"">+1 817-558-0604</a>","<a href=""https://www.google.com/maps?cid=15678772257794276165"" target=""_blank"" rel=""nofollow"">Get Directions</a>","1435 W Henderson St, Cleburne, TX 76031",Fri : open 24 hours <br> Sat : open 24 hours <br> Sun : open 24 hours <br> Mon : open 24 hours <br> Tue : open 24 hours <br> Wed : open 24 hours <br> Thu : open 24 hours,TX 76031,"McDonald's, Cleburne, TX 76031"
McDonald's,Irving,"<a href=""tel:+1 972-253-4492"" rel=""nofollow"">+1 972-253-4492</a>","<a href=""https://www.google.com/maps?cid=15478902217717574620"" target=""_blank"" rel=""nofollow"">Get Directions</a>","302 W Irving Blvd, Irving, TX 75060",Fri : 5am-2am <br> Sat : 5am-2am <br> Sun : 5am-12am <br> Mon : 5am-12am <br> Tue : 5am-12am <br> Wed : 5am-12am <br> Thu : 5am-12am,TX 75060,"McDonald's, Irving, TX 75060"
McDonald's,Odessa,"<a href=""tel:+1 432-337-9338"" rel=""nofollow"">+1 432-337-9338</a>","<a href=""https://www.google.com/maps?cid=1372769872473327327"" target=""_blank"" rel=""nofollow"">Get Directions</a>","1347 W University Blvd, Odessa, TX 79764",Fri : 5am-12am <br> Sat : 5am-12am <br> Sun : 5am-11pm <br> Mon : 5am-11pm <br> Tue : 5am-11pm <br> Wed : 5am-11pm <br> Thu : 5am-11pm,TX 79764,"McDonald's, Odessa, TX 79764"
McDonald's,Fort Worth,"<a href=""tel:+1 817-924-0421"" rel=""nofollow"">+1 817-924-0421</a>","<a href=""https://www.google.com/maps?cid=4058160795321738954"" target=""_blank"" rel=""nofollow"">Get Directions</a>","4800 South Fwy, Fort Worth, TX 76115",Fri : 5am-12am <br> Sat : open 24 hours <br> Sun : 4am-1am <br> Mon : 5am-1am <br> Tue : 5am-1am <br> Wed : 5am-1am <br> Thu : 5am-1am,TX 76115,"McDonald's, Fort Worth, TX 76115"
McDonald's,Waco,"<a href=""tel:+1 254-772-2082"" rel=""nofollow"">+1 254-772-2082</a>","<a href=""https://www.google.com/maps?cid=17798103549206963925"" target=""_blank"" rel=""nofollow"">Get Directions</a>","1225 N Valley Mills Dr, Waco, TX 76710",Fri : 5am-11pm <br> Sat : 5am-11pm <br> Sun : 5am-11pm <br> Mon : 5am-11pm <br> Tue : 5am-11pm <br> Wed : 5am-11pm <br> Thu : 5am-11pm,TX 76710,"McDonald's, Waco, TX 76710"
McDonald's,Dallas,"<a href=""tel:+1 214-369-6256"" rel=""nofollow"">+1 214-369-6256</a>","<a href=""https://www.google.com/maps?cid=12248363627796196790"" target=""_blank"" rel=""nofollow"">Get Directions</a>","5960 Greenville Ave, Dallas, TX 75206",Fri : open 24 hours <br> Sat : open 24 hours <br> Sun : open 24 hours <br> Mon : open 24 hours <br> Tue : open 24 hours <br> Wed : open 24 hours <br> Thu : open 24 hours,TX 75206,"McDonald's, Dallas, TX 75206"
McDonald's,Gatesville,"<a href=""tel:+1 254-865-8884"" rel=""nofollow"">+1 254-865-8884</a>","<a href=""https://www.google.com/maps?cid=3214176757830619182"" target=""_blank"" rel=""nofollow"">Get Directions</a>","2302 Main St, Gatesville, TX 76528",Fri : open 24 hours <br> Sat : open 24 hours <br> Sun : open 24 hours <br> Mon : open 24 hours <br> Tue : open 24 hours <br> Wed : open 24 hours <br> Thu : open 24 hours,TX 76528,"McDonald's, Gatesville, TX 76528"
McDonald's,Fort Worth,"<a href=""tel:+1 817-735-1970"" rel=""nofollow"">+1 817-735-1970</a>","<a href=""https://www.google.com/maps?cid=15026425114000174287"" target=""_blank"" rel=""nofollow"">Get Directions</a>","3300 Hulen St, Fort Worth, TX 76107",Fri : 5am-11pm <br> Sat : 5am-11pm <br> Sun : 5am-11pm <br> Mon : 5am-11pm <br> Tue : 5am-11pm <br> Wed : 5am-11pm <br> Thu : 5am-11pm,TX 76107,"McDonald's, Fort Worth, TX 76107"
McDonald's,Burleson,"<a href=""tel:+1 817-295-3281"" rel=""nofollow"">+1 817-295-3281</a>","<a href=""https://www.google.com/maps?cid=11347499720296086510"" target=""_blank"" rel=""nofollow"">Get Directions</a>","986 N Burleson Blvd, Burleson, TX 76028",Fri : 4 : 30am-12am <br> Sat : 4 : 30am-12am <br> Sun : 4 : 30am-11pm <br> Mon : 4 : 30am-11pm <br> Tue : 4 : 30am-11pm <br> Wed : 4 : 30am-11pm <br> Thu : 4 : 30am-11pm,TX 76028,"McDonald's, Burleson, TX 76028"
McDonald's,Beeville,"<a href=""tel:+1 361-358-4770"" rel=""nofollow"">+1 361-358-4770</a>","<a href=""https://www.google.com/maps?cid=7802153813236695926"" target=""_blank"" rel=""nofollow"">Get Directions</a>","2301 N Saint Mary, Beeville, TX 78102",Fri : 5am-12am <br> Sat : open 24 hours <br> Sun : 4am-11pm <br> Mon : 5am-11pm <br> Tue : 5am-11pm <br> Wed : 5am-11pm <br> Thu : 5am-11pm,TX 78102,"McDonald's, Beeville, TX 78102"
McDonald's,Lubbock,"<a href=""tel:+1 806-745-7678"" rel=""nofollow"">+1 806-745-7678</a>","<a href=""https://www.google.com/maps?cid=4849941472388921114"" target=""_blank"" rel=""nofollow"">Get Directions</a>","2433 S Loop 289, Lubbock, TX 79423",Fri : open 24 hours <br> Sat : open 24 hours <br> Sun : open 24 hours <br> Mon : open 24 hours <br> Tue : open 24 hours <br> Wed : open 24 hours <br> Thu : open 24 hours,TX 79423,"McDonald's, Lubbock, TX 79423"
McDonald's,Abilene,"<a href=""tel:+1 325-672-1271"" rel=""nofollow"">+1 325-672-1271</a>","<a href=""https://www.google.com/maps?cid=11465435962430160066"" target=""_blank"" rel=""nofollow"">Get Directions</a>","1201 N Judge Ely Blvd, Abilene, TX 79601",Fri : 6am-2am <br> Sat : 6am-2am <br> Sun : 6am-1am <br> Mon : 6am-1am <br> Tue : 6am-1am <br> Wed : 6am-1am <br> Thu : 6am-1am,TX 79601,"McDonald's, Abilene, TX 79601"
McDonald's,Lampasas,"<a href=""tel:+1 512-556-2202"" rel=""nofollow"">+1 512-556-2202</a>","<a href=""https://www.google.com/maps?cid=12219733875994629405"" target=""_blank"" rel=""nofollow"">Get Directions</a>","804 S Key Ave, Lampasas, TX 76550",Fri : open 24 hours <br> Sat : open 24 hours <br> Sun : open 24 hours <br> Mon : open 24 hours <br> Tue : open 24 hours <br> Wed : open 24 hours <br> Thu : open 24 hours,TX 76550,"McDonald's, Lampasas, TX 76550"
McDonald's,Round Rock,"<a href=""tel:+1 512-238-6002"" rel=""nofollow"">+1 512-238-6002</a>","<a href=""https://www.google.com/maps?cid=3518116052242705662"" target=""_blank"" rel=""nofollow"">Get Directions</a>","4700 E Palm Valley Blvd, Round Rock, TX 78664",Fri : 7am-10pm <br> Sat : 7am-10pm <br> Sun : 7am-10pm <br> Mon : 7am-10pm <br> Tue : 7am-10pm <br> Wed : 7am-10pm <br> Thu : 7am-10pm,TX 78664,"McDonald's, Round Rock, TX 78664"
McDonald's,Austin,"<a href=""tel:+1 512-346-5440"" rel=""nofollow"">+1 512-346-5440</a>","<a href=""https://www.google.com/maps?cid=9599176105709743130"" target=""_blank"" rel=""nofollow"">Get Directions</a>","10732 Research Blvd, Austin, TX 78759",Fri : 5am-11pm <br> Sat : 5am-11pm <br> Sun : 5am-11pm <br> Mon : 5am-11pm <br> Tue : 5am-11pm <br> Wed : 5am-11pm <br> Thu : 5am-11pm,TX 78759,"McDonald's, Austin, TX 78759"
McDonald's,Kerrville,"<a href=""tel:+1 830-896-7644"" rel=""nofollow"">+1 830-896-7644</a>","<a href=""https://www.google.com/maps?cid=1892977231796030964"" target=""_blank"" rel=""nofollow"">Get Directions</a>","600 Sidney Baker St, Kerrville, TX 78028",Fri : 6am-12am <br> Sat : 6am-12am <br> Sun : 6am-11pm <br> Mon : 6am-11pm <br> Tue : 6am-11pm <br> Wed : 6am-11pm <br> Thu : 6am-12am,TX 78028,"McDonald's, Kerrville, TX 78028"
McDonald's,Copperas Cove,"<a href=""tel:+1 254-547-8212"" rel=""nofollow"">+1 254-547-8212</a>","<a href=""https://www.google.com/maps?cid=8142008231773995605"" target=""_blank"" rel=""nofollow"">Get Directions</a>","1418 U.S. Hwy 190, Copperas Cove, TX 76522",Fri : open 24 hours <br> Sat : open 24 hours <br> Sun : open 24 hours <br> Mon : open 24 hours <br> Tue : open 24 hours <br> Wed : open 24 hours <br> Thu : open 24 hours,TX 76522,"McDonald's, Copperas Cove, TX 76522"
McDonald's,Fort Worth,"<a href=""tel:+1 817-294-9484"" rel=""nofollow"">+1 817-294-9484</a>","<a href=""https://www.google.com/maps?cid=17272996054452090921"" target=""_blank"" rel=""nofollow"">Get Directions</a>","5901 Bryant Irvin Rd, Fort Worth, TX 76132",Fri : 6am-12am <br> Sat : 5am-12am <br> Sun : 5am-12am <br> Mon : 5am-12am <br> Tue : 5am-12am <br> Wed : 5am-12am <br> Thu : 5am-12am,TX 76132,"McDonald's, Fort Worth, TX 76132"
McDonald's,Fort Worth,"<a href=""tel:+1 817-535-0545"" rel=""nofollow"">+1 817-535-0545</a>","<a href=""https://www.google.com/maps?cid=3818388896849780223"" target=""_blank"" rel=""nofollow"">Get Directions</a>","4101 E Lancaster Ave, Fort Worth, TX 76103",Fri : 5am-4am <br> Sat : 5am-4am <br> Sun : 5am-12am <br> Mon : 5am-12am <br> Tue : 5am-12am <br> Wed : 5am-12am <br> Thu : 5am-12am,TX 76103,"McDonald's, Fort Worth, TX 76103"
McDonald's,Del Rio,"<a href=""tel:+1 830-774-4505"" rel=""nofollow"">+1 830-774-4505</a>","<a href=""https://www.google.com/maps?cid=9776391289372955660"" target=""_blank"" rel=""nofollow"">Get Directions</a>","1701 Veterans Blvd, Del Rio, TX 78840",Fri : 4am-1am <br> Sat : 4am-1am <br> Sun : 4am-12am <br> Mon : 4am-12am <br> Tue : 4am-12am <br> Wed : 4am-12am <br> Thu : 4am-12am,TX 78840,"McDonald's, Del Rio, TX 78840"
McDonald's,San Angelo,"<a href=""tel:+1 325-653-1399"" rel=""nofollow"">+1 325-653-1399</a>","<a href=""https://www.google.com/maps?cid=12182180178629634099"" target=""_blank"" rel=""nofollow"">Get Directions</a>","610 W 29th St, San Angelo, TX 76903",Fri : 6am-12am <br> Sat : 6am-12am <br> Sun : 6am-12am <br> Mon : 6am-12am <br> Tue : 6am-12am <br> Wed : 6am-12am <br> Thu : 6am-12am,TX 76903,"McDonald's, San Angelo, TX 76903"
McDonald's,Burleson,"<a href=""tel:+1 817-295-6373"" rel=""nofollow"">+1 817-295-6373</a>","<a href=""https://www.google.com/maps?cid=2793602994433083297"" target=""_blank"" rel=""nofollow"">Get Directions</a>","911 SW Wilshire Blvd, Burleson, TX 76028",Fri : 5am-12am <br> Sat : 5am-12am <br> Sun : 5am-12am <br> Mon : 5am-12am <br> Tue : 5am-12am <br> Wed : 5am-12am <br> Thu : 5am-12am,TX 76028,"McDonald's, Burleson, TX 76028"
McDonald's,Horizon City,"<a href=""tel:+1 915-852-5189"" rel=""nofollow"">+1 915-852-5189</a>","<a href=""https://www.google.com/maps?cid=11053683368759794844"" target=""_blank"" rel=""nofollow"">Get Directions</a>","13990 Horizon Blvd, Horizon City, TX 79928",Thu : 5am-4am <br> Fri : 5am-4am <br> Sat : 5am-4am <br> Sun : 5am-4am <br> Mon : 5am-4am <br> Tue : 5am-4am <br> Wed : 5am-4am,TX 79928,"McDonald's, Horizon City, TX 79928"
McDonald's,Odessa,"<a href=""tel:+1 432-367-1061"" rel=""nofollow"">+1 432-367-1061</a>","<a href=""https://www.google.com/maps?cid=16683013079169310958"" target=""_blank"" rel=""nofollow"">Get Directions</a>","4115 Andrews Hwy, Odessa, TX 79762",Fri : 5am-12am <br> Sat : 5am-12am <br> Sun : 5am-11pm <br> Mon : 5am-11pm <br> Tue : 5am-11pm <br> Wed : 5am-11pm <br> Thu : 5am-11pm,TX 79762,"McDonald's, Odessa, TX 79762"
McDonald's,Austin,"<a href=""tel:+1 512-442-0412"" rel=""nofollow"">+1 512-442-0412</a>","<a href=""https://www.google.com/maps?cid=2142927458143177356"" target=""_blank"" rel=""nofollow"">Get Directions</a>","1209 Barton Springs Rd, Austin, TX 78704",Fri : 7am-9pm <br> Sat : 7am-9pm <br> Sun : 7am-9pm <br> Mon : 7am-9pm <br> Tue : 7am-9pm <br> Wed : 7am-9pm <br> Thu : 7am-9pm,TX 78704,"McDonald's, Austin, TX 78704"
McDonald's,Dallas,"<a href=""tel:+1 214-484-2837"" rel=""nofollow"">+1 214-484-2837</a>","<a href=""https://www.google.com/maps?cid=1166492941811789566"" target=""_blank"" rel=""nofollow"">Get Directions</a>","6950 Greenville Ave, Dallas, TX 75231",Fri : open 24 hours <br> Sat : open 24 hours <br> Sun : open 24 hours <br> Mon : open 24 hours <br> Tue : open 24 hours <br> Wed : open 24 hours <br> Thu : open 24 hours,TX 75231,"McDonald's, Dallas, TX 75231"
McDonald's,Vernon,"<a href=""tel:+1 940-553-1881"" rel=""nofollow"">+1 940-553-1881</a>","<a href=""https://www.google.com/maps?cid=15217869603434069574"" target=""_blank"" rel=""nofollow"">Get Directions</a>","801 Hillcrest Dr, Vernon, TX 76384",Fri : 5am-1am <br> Sat : 5am-1am <br> Sun : 5am-12am <br> Mon : 5am-12am <br> Tue : 5am-12am <br> Wed : 5am-12am <br> Thu : 5am-12am,TX 76384,"McDonald's, Vernon, TX 76384"
McDonald's,Arlington,"<a href=""tel:+1 817-465-5368"" rel=""nofollow"">+1 817-465-5368</a>","<a href=""https://www.google.com/maps?cid=10153742947819698734"" target=""_blank"" rel=""nofollow"">Get Directions</a>","4300 S Cooper St, Arlington, TX 76015",Fri : 6am-1am <br> Sat : 6am-1am <br> Sun : 6am-1am <br> Mon : 6am-1am <br> Tue : 6am-1am <br> Wed : 6am-1am <br> Thu : 6am-1am,TX 76015,"McDonald's, Arlington, TX 76015"
McDonald's,Odessa,"<a href=""tel:+1 432-580-9940"" rel=""nofollow"">+1 432-580-9940</a>","<a href=""https://www.google.com/maps?cid=8815479584274715472"" target=""_blank"" rel=""nofollow"">Get Directions</a>","1800 E 8th St, Odessa, TX 79761",Fri : 5am-12am <br> Sat : 5am-12am <br> Sun : 5am-11pm <br> Mon : 5am-11pm <br> Tue : 5am-11pm <br> Wed : 5am-11pm <br> Thu : 5am-11pm,TX 79761,"McDonald's, Odessa, TX 79761"
McDonald's,Odessa,"<a href=""tel:+1 432-550-4560"" rel=""nofollow"">+1 432-550-4560</a>","<a href=""https://www.google.com/maps?cid=2083246413552286435"" target=""_blank"" rel=""nofollow"">Get Directions</a>","5141 E 42nd St, Odessa, TX 79762",Fri : open 24 hours <br> Sat : open 24 hours <br> Sun : open 24 hours <br> Mon : open 24 hours <br> Tue : open 24 hours <br> Wed : open 24 hours <br> Thu : open 24 hours,TX 79762,"McDonald's, Odessa, TX 79762"
McDonald's,Lubbock,"<a href=""tel:+1 806-791-7701"" rel=""nofollow"">+1 806-791-7701</a>","<a href=""https://www.google.com/maps?cid=18287438308543159372"" target=""_blank"" rel=""nofollow"">Get Directions</a>","5201 4th St, Lubbock, TX 79416",Fri : 4am-3am <br> Sat : 4am-3am <br> Sun : 4am-3am <br> Mon : 4am-3am <br> Tue : 4am-3am <br> Wed : 4am-3am <br> Thu : 4am-3am,TX 79416,"McDonald's, Lubbock, TX 79416"
McDonald's,Austin,"<a href=""tel:+1 512-452-7473"" rel=""nofollow"">+1 512-452-7473</a>","<a href=""https://www.google.com/maps?cid=17006595024941608136"" target=""_blank"" rel=""nofollow"">Get Directions</a>","5355 Interregional Hwy, Austin, TX 78723",Fri : open 24 hours <br> Sat : open 24 hours <br> Sun : open 24 hours <br> Mon : open 24 hours <br> Tue : open 24 hours <br> Wed : open 24 hours <br> Thu : open 24 hours,TX 78723,"McDonald's, Austin, TX 78723"
McDonald's,Abilene,"<a href=""tel:+1 325-695-2616"" rel=""nofollow"">+1 325-695-2616</a>","<a href=""https://www.google.com/maps?cid=9217580661049740855"" target=""_blank"" rel=""nofollow"">Get Directions</a>","4302 Buffalo Gap Rd, Abilene, TX 79605",Fri : open 24 hours <br> Sat : open 24 hours <br> Sun : open 24 hours <br> Mon : open 24 hours <br> Tue : open 24 hours <br> Wed : open 24 hours <br> Thu : open 24 hours,TX 79605,"McDonald's, Abilene, TX 79605"
McDonald's,TX-114,"<a href=""tel:+1 682-831-9927"" rel=""nofollow"">+1 682-831-9927</a>","<a href=""https://www.google.com/maps?cid=3409198868080234606"" target=""_blank"" rel=""nofollow"">Get Directions</a>","15957 North Freeway, TX-114, Fort Worth, TX 76177",Fri : 5am-12am <br> Sat : 5am-12am <br> Sun : 5am-12am <br> Mon : 5am-12am <br> Tue : 5am-12am <br> Wed : 5am-12am <br> Thu : 5am-12am,,"McDonald's, TX-114, "
McDonald's,Wichita Falls,"<a href=""tel:+1 940-767-1339"" rel=""nofollow"">+1 940-767-1339</a>","<a href=""https://www.google.com/maps?cid=4735591364473763957"" target=""_blank"" rel=""nofollow"">Get Directions</a>","1412 Holliday St, Wichita Falls, TX 76301",Fri : 5am-1am <br> Sat : 5am-1am <br> Sun : 5am-12am <br> Mon : 5am-12am <br> Tue : 5am-12am <br> Wed : 5am-12am <br> Thu : 5am-12am,TX 76301,"McDonald's, Wichita Falls, TX 76301"
McDonald's,Waco,"<a href=""tel:+1 254-836-0600"" rel=""nofollow"">+1 254-836-0600</a>","<a href=""https://www.google.com/maps?cid=3192754309237191618"" target=""_blank"" rel=""nofollow"">Get Directions</a>","10200 China Spring Rd, Waco, TX 76708",Fri : 5am-11pm <br> Sat : 5am-11pm <br> Sun : 5am-11pm <br> Mon : 5am-11pm <br> Tue : 5am-11pm <br> Wed : 5am-11pm <br> Thu : 5am-11pm,TX 76708,"McDonald's, Waco, TX 76708"
McDonald's,Fort Worth,"<a href=""tel:+1 817-927-3683"" rel=""nofollow"">+1 817-927-3683</a>","<a href=""https://www.google.com/maps?cid=2431764047856333282"" target=""_blank"" rel=""nofollow"">Get Directions</a>","1500 S Main St, Fort Worth, TX 76104",Fri : 5am-3am <br> Sat : 5am-3am <br> Sun : 5am-3am <br> Mon : 5am-3am <br> Tue : 5am-3am <br> Wed : 5am-3am <br> Thu : 5am-3am,TX 76104,"McDonald's, Fort Worth, TX 76104"
McDonald's,Burkburnett,"<a href=""tel:+1 940-569-0106"" rel=""nofollow"">+1 940-569-0106</a>","<a href=""https://www.google.com/maps?cid=7374966609355333283"" target=""_blank"" rel=""nofollow"">Get Directions</a>","819 Sheppard Rd, Burkburnett, TX 76354",Fri : 5am-11pm <br> Sat : 5am-11pm <br> Sun : 5am-11pm <br> Mon : 5am-11pm <br> Tue : 5am-11pm <br> Wed : 5am-11pm <br> Thu : 5am-11pm,TX 76354,"McDonald's, Burkburnett, TX 76354"
McDonald's,Lubbock,"<a href=""tel:+1 806-797-0422"" rel=""nofollow"">+1 806-797-0422</a>","<a href=""https://www.google.com/maps?cid=8354283674467660614"" target=""_blank"" rel=""nofollow"">Get Directions</a>","6001 19th St, Lubbock, TX 79407",Fri : open 24 hours <br> Sat : open 24 hours <br> Sun : open 24 hours <br> Mon : open 24 hours <br> Tue : open 24 hours <br> Wed : open 24 hours <br> Thu : open 24 hours,TX 79407,"McDonald's, Lubbock, TX 79407"
McDonald's,Wichita Falls,"<a href=""tel:+1 940-691-0525"" rel=""nofollow"">+1 940-691-0525</a>","<a href=""https://www.google.com/maps?cid=1155053919238285319"" target=""_blank"" rel=""nofollow"">Get Directions</a>","3103 Kemp Blvd, Wichita Falls, TX 76308",Fri : 5am-1am <br> Sat : 5am-1am <br> Sun : 5am-1am <br> Mon : 5am-1am <br> Tue : 5am-1am <br> Wed : 5am-1am <br> Thu : 5am-1am,TX 76308,"McDonald's, Wichita Falls, TX 76308"
McDonald's,Austin,"<a href=""tel:+1 512-707-6838"" rel=""nofollow"">+1 512-707-6838</a>","<a href=""https://www.google.com/maps?cid=8372671705203615662"" target=""_blank"" rel=""nofollow"">Get Directions</a>","710 E Ben White Blvd, Austin, TX 78704",Fri : 7am-10pm <br> Sat : 7am-10pm <br> Sun : 7am-10pm <br> Mon : 7am-10pm <br> Tue : 7am-10pm <br> Wed : 7am-10pm <br> Thu : 7am-10pm,TX 78704,"McDonald's, Austin, TX 78704"
McDonald's,Austin,"<a href=""tel:+1 512-442-7717"" rel=""nofollow"">+1 512-442-7717</a>","<a href=""https://www.google.com/maps?cid=18397279368405126346"" target=""_blank"" rel=""nofollow"">Get Directions</a>","303 E Oltorf St, Austin, TX 78704",Fri : 5am-2am <br> Sat : 5am-2am <br> Sun : 5am-2am <br> Mon : 5am-1am <br> Tue : 5am-1am <br> Wed : 5am-1am <br> Thu : 5am-1am,TX 78704,"McDonald's, Austin, TX 78704"
McDonald's,Lubbock,"<a href=""tel:+1 806-698-6734"" rel=""nofollow"">+1 806-698-6734</a>","<a href=""https://www.google.com/maps?cid=17425222397409515549"" target=""_blank"" rel=""nofollow"">Get Directions</a>","4220 98th St, Lubbock, TX 79423",Fri : 6am-12am <br> Sat : 6am-12am <br> Sun : 6am-11pm <br> Mon : 6am-11pm <br> Tue : 6am-11pm <br> Wed : 6am-11pm <br> Thu : 6am-11pm,TX 79423,"McDonald's, Lubbock, TX 79423"
McDonald's,Dallas,"<a href=""tel:+1 214-330-4873"" rel=""nofollow"">+1 214-330-4873</a>","<a href=""https://www.google.com/maps?cid=3502144433498594468"" target=""_blank"" rel=""nofollow"">Get Directions</a>","4223 W Illinois Ave, Dallas, TX 75211",Fri : 5am-1am <br> Sat : 5am-1am <br> Sun : 5am-12am <br> Mon : 5am-12am <br> Tue : 5am-12am <br> Wed : 5am-12am <br> Thu : 5am-12am,TX 75211,"McDonald's, Dallas, TX 75211"
McDonald's,1143 1,"<a href=""tel:+1 512-926-1234"" rel=""nofollow"">+1 512-926-1234</a>","<a href=""https://www.google.com/maps?cid=9805384691487752421"" target=""_blank"" rel=""nofollow"">Get Directions</a>","2, 1143 1, Airport Blvd, Austin, TX 78721",Fri : open 24 hours <br> Sat : open 24 hours <br> Sun : 5am-1am <br> Mon : 5am-1am <br> Tue : 5am-1am <br> Wed : 5am-1am <br> Thu : 5am-12am,,"McDonald's, 1143 1, "
McDonald's,New Boston,"<a href=""tel:+1 903-628-2499"" rel=""nofollow"">+1 903-628-2499</a>","<a href=""https://www.google.com/maps?cid=11203076873201390283"" target=""_blank"" rel=""nofollow"">Get Directions</a>","702 N McCoy Blvd, New Boston, TX 75570",Fri : 5am-12am <br> Sat : 5am-12am <br> Sun : 5am-11pm <br> Mon : 5am-11pm <br> Tue : 5am-11pm <br> Wed : 5am-11pm <br> Thu : 5am-11pm,TX 75570,"McDonald's, New Boston, TX 75570"
McDonald's,Lubbock,"<a href=""tel:+1 806-783-0898"" rel=""nofollow"">+1 806-783-0898</a>","<a href=""https://www.google.com/maps?cid=5257731899542922132"" target=""_blank"" rel=""nofollow"">Get Directions</a>","6511 82nd St, Lubbock, TX 79424",Fri : open 24 hours <br> Sat : open 24 hours <br> Sun : open 24 hours <br> Mon : open 24 hours <br> Tue : open 24 hours <br> Wed : open 24 hours <br> Thu : open 24 hours,TX 79424,"McDonald's, Lubbock, TX 79424"
